hotel_id,hotel,stars,address,city_id,latitude,longitude,categories,attributes,source_id
DtxrbAIsSMs4Qshm99AFAQ,Reno Tahoe Shuttle,3.5,,87.0,39.5424616,-119.8410174,"['Hotels & Travel', ' Airport Shuttles', ' Transportation']","{'WiFi': ""u'no'""}",1
KBDlQpRaxMDTGcZwp2HLEw,Courtyard by Marriott Reno,3.0,6855 South Virginia Street,87.0,39.4643314887,-119.7849038243,"['Hotels & Travel', ' Event Planning & Services', ' Venues & Event Spaces', ' Hotels']","{'RestaurantsPriceRange2': '2', 'BusinessAcceptsCreditCards': 'True', 'WiFi': ""u'free'"", 'BusinessAcceptsBitcoin': 'False', 'DogsAllowed': 'False', 'WheelchairAccessible': 'True'}",1
bEbw6ACHbfZby1V_Chx8JA,Lexie's On the River,4.5,1 S Lake St,87.0,39.5250093,-119.8106432,"['Hotels & Travel', ' Restaurants', ' Hotels', ' Event Planning & Services']","{'RestaurantsAttire': ""'casual'"", 'RestaurantsPriceRange2': '3', 'RestaurantsDelivery': 'False', 'BusinessAcceptsCreditCards': 'True', 'OutdoorSeating': 'True', 'RestaurantsGoodForGroups': 'True', 'BusinessParking': ""{'garage': False, 'street': False, 'validated': False, 'lot': False, 'valet': True}"", 'RestaurantsReservations': 'True', 'Alcohol': ""'full_bar'"", 'RestaurantsTakeOut': 'False', 'GoodForKids': 'False'}",1
OGVTvqYz4yOFLpbCfU5c3g,Desert Rose Inn,3.0,655 W 4th St,87.0,39.5287831,-119.8228991,['Hotels & Travel'],"{'WiFi': ""u'free'""}",1
zYp_JUPeWwFtghZDDApwdA,Enterprise Rent-A-Car,4.5,407 N Virginia St,87.0,39.530447,-119.815248,"['Hotels & Travel', ' Car Rental']",None,1
PxYZojjBpat4-mK1vqCDbA,Payless Car Rental Airport,2.0,2001 East Plumb Ln,87.0,39.5058565,-119.774971,"['Hotels & Travel', ' Car Rental']",None,1
wcs7paEuhfHBZGVjlFzA6g,El Monte RV Rentals,1.0,130 Woodland Ave,87.0,39.5055148,-119.8953379,"['Hotels & Travel', ' RV Rental']",None,1
TgbI5_wXWa82NBVwkvC0yQ,Courtyard by Marriott Philadelphia Plymouth Meeting,3.0,651 Fountain Road,4899.0,40.1220610426,-75.2834014577,"['Hotels & Travel', ' Event Planning & Services', ' Hotels', ' Venues & Event Spaces']","{'RestaurantsPriceRange2': '2', 'DogsAllowed': 'False', 'BusinessAcceptsBitcoin': 'False', 'BusinessAcceptsCreditCards': 'True', 'WiFi': ""u'paid'"", 'WheelchairAccessible': 'True'}",1
8ynnZAfsIHltv72hiM-rlA,DoubleTree Suites by Hilton Hotel Philadelphia West,2.5,640 Fountain Rd,4899.0,40.1202594085,-75.2822801284,"['Hotels & Travel', ' Hotels', ' Restaurants', ' Event Planning & Services']","{'BusinessAcceptsCreditCards': 'True', 'WiFi': ""u'free'"", 'OutdoorSeating': 'False', 'Ambience': ""{'romantic': False, 'intimate': False, 'classy': False, 'hipster': False, 'divey': False, 'touristy': False, 'trendy': False, 'upscale': False, 'casual': False}"", 'GoodForKids': 'True', 'Alcohol': ""'full_bar'"", 'RestaurantsPriceRange2': '2', 'RestaurantsDelivery': 'False', 'BikeParking': 'False', 'RestaurantsReservations': 'True', 'HasTV': 'True', 'NoiseLevel': ""u'average'"", 'RestaurantsGoodForGroups': 'True', 'RestaurantsTakeOut': 'False', 'BusinessParking': ""{'garage': False, 'street': False, 'validated': False, 'lot': True, 'valet': False}"", 'DogsAllowed': 'False', 'RestaurantsAttire': ""'casual'"", 'Caters': 'False'}",1
Sh8EwPWS6kRs_f6jExrIOw,Woodspring Suites,1.5,101 Lee Dr,4899.0,40.1077446195,-75.2942559868,"['Hotels & Travel', ' Event Planning & Services', ' Hotels']",None,1
SBy57DuS62gcyGDEOm18Tw,Red Roof Inn Bridgeton,1.5,3470 Hollenberg Dr,3330.0,38.7587574561,-90.4387273755,"['Hotels & Travel', ' Hotels', ' Event Planning & Services']","{'RestaurantsPriceRange2': '1', 'WiFi': ""u'paid'"", 'BusinessAcceptsCreditCards': 'True'}",1
1zI0kYUdUijOBSBwIfFe1g,The Lodge Hotel & Banquet,1.0,3551 Pennridge,3330.0,38.7570255,-90.4377564,"['Hotels', ' Event Planning & Services', ' Hotels & Travel']","{'BusinessAcceptsCreditCards': 'True', 'WiFi': ""u'free'"", 'RestaurantsPriceRange2': '1'}",1
oPzSiJdl9Lg1rB_7bL06qg,Four Points by Sheraton Nashville Airport,3.0,800 Royal Pkwy,10737.0,36.14481,-86.662601,"['Hotels & Travel', ' Event Planning & Services', ' Venues & Event Spaces', ' Hotels']","{'BusinessAcceptsCreditCards': 'True', 'WiFi': ""'free'"", 'DogsAllowed': 'False', 'BusinessAcceptsBitcoin': 'False', 'RestaurantsPriceRange2': '2'}",1
SEBtAgVuiZQtnqd__OifaA,Comfort Inn Nashville West,2.5,412 White Bridge Pl,10737.0,36.151363,-86.856776,"['Hotels & Travel', ' Event Planning & Services', ' Hotels']","{'RestaurantsPriceRange2': '2', 'BusinessAcceptsCreditCards': 'True', 'WiFi': ""u'free'""}",1
2nNrr5KamJ3BodzqtOvMwg,Holiday Inn Express Nashville W I40/Whitebridge Rd,2.5,5612 Lenox Ave,10737.0,36.1484039504,-86.8590614945,"['Hotels & Travel', ' Event Planning & Services', ' Hotels', ' Venues & Event Spaces']","{'RestaurantsPriceRange2': '2', 'WiFi': ""u'free'"", 'BusinessAcceptsCreditCards': 'True', 'ByAppointmentOnly': 'False'}",1
RJGcaGTxCxszS23fokK1jw,Big Green Tractor Tours,5.0,529 4th Ave S,10737.0,36.1549026044,-86.7735097023,"['Hotels & Travel', ' Tours']","{'WiFi': ""u'no'""}",1
5rXu7H5mjNFQjAV9MRTxyw,Wingate by Wyndham Nashville Airport,3.0,1 Century Blvd,10737.0,36.144234,-86.6860519,"['Hotels & Travel', ' Event Planning & Services', ' Hotels']","{'WiFi': ""u'free'"", 'BusinessAcceptsCreditCards': 'True', 'RestaurantsPriceRange2': '2'}",1
1M8W2HVRV7-Hi7cw7Ini4Q,"Home2 Suites by Hilton Nashville Vanderbilt, TN",3.5,1800 Division St,10737.0,36.1515852663,-86.79441154,"['Hotels & Travel', ' Event Planning & Services', ' Hotels']","{'BusinessAcceptsCreditCards': 'True', 'WiFi': ""u'free'"", 'RestaurantsPriceRange2': '2'}",1
0DQr3ECefRNE0zsFKwd1fQ,Hilton Nashville Airport Hotel,2.5,2200 Elm Hill Pike,10737.0,36.1536993531,-86.6904732742,"['Hotels & Travel', ' Hotels', ' Event Planning & Services', ' Venues & Event Spaces']","{'WiFi': ""'free'"", 'ByAppointmentOnly': 'True', 'RestaurantsPriceRange2': '2', 'BusinessAcceptsCreditCards': 'True'}",1
fvZkWsJpwBhbNmEe9ue1Mg,Clarion Hotel Nashville Downtown - Stadium,3.5,211 N 1st St,10737.0,36.174793,-86.773642,"['Hotels & Travel', ' Hotels', ' Event Planning & Services']","{'RestaurantsPriceRange2': '2', 'DogsAllowed': 'False', 'BusinessAcceptsCreditCards': 'True', 'WiFi': ""'free'""}",1
JErlN2z9oxWy2JGXfH6q4g,Courtyard by Marriott Nashville Airport,3.5,2508 Elm Hill Pike,10737.0,36.152699742,-86.6814262467,"['Hotels', ' Venues & Event Spaces', ' Event Planning & Services', ' Hotels & Travel']","{'BusinessAcceptsBitcoin': 'False', 'RestaurantsPriceRange2': '2', 'BusinessAcceptsCreditCards': 'True', 'DogsAllowed': 'False', 'WiFi': ""u'free'""}",1
BsqWAGeo0VNIaiSIMkbQew,Country Inn & Suites by Carlson-Nashville Airport,2.5,590 Donelson Pike,10737.0,36.1427401,-86.6672864,"['Hotels', ' Hotels & Travel', ' Event Planning & Services']","{'RestaurantsPriceRange2': '2', 'BusinessAcceptsCreditCards': 'True', 'WiFi': ""u'free'""}",1
0i-nqDj0GJsIONjYBF2CJA,TownePlace Suites Nashville Downtown/Capitol District,4.0,310 Gay St,10737.0,36.1689108,-86.7811019,"['Hotels', ' Hotels & Travel', ' Event Planning & Services']","{'WiFi': ""u'free'"", 'DogsAllowed': 'True', 'BusinessAcceptsCreditCards': 'True', 'BusinessAcceptsBitcoin': 'False'}",1
G2Ubc7_x_MoI_H-jsX4fug,Hilton Nashville Green Hills,4.0,3801 Cleghorn Ave,10737.0,36.10957,-86.8185805,"['Hotels', ' Hotels & Travel', ' Event Planning & Services']",{'BusinessAcceptsCreditCards': 'True'},1
ApQVCHPl-8ualMxQiCbKjQ,Motel 6,2.5,701 Stewart's Ferry Pike,10737.0,36.1548304,-86.6257528,"['Hotels', ' Hotels & Travel', ' Event Planning & Services']","{'WiFi': ""u'free'"", 'BusinessAcceptsCreditCards': 'True', 'RestaurantsPriceRange2': '1'}",1
y9CRaDv1ZRZkSjt7ZuZ-mg,12 South Inn Suites,4.0,918 Knox Ave,10737.0,36.121479,-86.785567,"['Bed & Breakfast', ' Hotels & Travel']","{'WiFi': ""u'free'""}",1
TRvDnBK3Z9J41Cki-u5HiQ,Downtown Hair Salon,4.5,17 Arcade,10737.0,36.1645141516,-86.779399955,"['Day Spas', ' Nail Salons', ' Beauty & Spas', ' Hair Salons']","{'ByAppointmentOnly': 'False', 'BusinessParking': ""{'garage': False, 'street': True, 'validated': False, 'lot': False, 'valet': False}"", 'RestaurantsPriceRange2': '2', 'BusinessAcceptsCreditCards': 'True', 'GoodForKids': 'True', 'BikeParking': 'True'}",1
Eg5BtNkFNxseJ-L-XtmQxQ,T Nails,2.0,"2613 Franklin Pike, Ste 104",10737.0,36.1200856,-86.7766364,"['Day Spas', ' Beauty & Spas', ' Nail Salons']","{'BusinessAcceptsCreditCards': 'True', 'RestaurantsPriceRange2': '2', 'WheelchairAccessible': 'True', 'BusinessParking': ""{'garage': False, 'street': False, 'validated': False, 'lot': False, 'valet': False}"", 'BikeParking': 'True', 'ByAppointmentOnly': 'False'}",1
OhUQLPiPuwczM8Rlm-itcA,Holiday Isles Resort,2.5,14711 Gulf Blvd,6736.0,27.7993516,-82.7985162,"['Hotels & Travel', ' Hotels', ' Event Planning & Services']","{'BusinessAcceptsCreditCards': 'True', 'RestaurantsPriceRange2': '1', 'WiFi': ""u'free'""}",1
qPC1cvjvNM197sPpiYictg,Courtyard by Marriott St. Petersburg Clearwater/Madeira Beach,4.5,601 American Legion Drive,6736.0,27.8094629,-82.7945771,"['Hotels', ' Event Planning & Services', ' Hotels & Travel', ' Venues & Event Spaces']","{'BusinessAcceptsCreditCards': 'True', 'WheelchairAccessible': 'True', 'WiFi': ""'free'"", 'RestaurantsPriceRange2': '2', 'DogsAllowed': 'False'}",1
Pcxef4vgyFAfNgsFW7peNw,Enterprise Rent-A-Car,2.0,1201 E Erie Ave,13109.0,40.005848,-75.104891,"['Hotels & Travel', ' Car Rental']",None,1
zy2p8yfx_fgXMCCUo8nWsA,Sleep Inn Center City,3.5,1020 Cherry St,13109.0,39.9546067076,-75.157443872,"['Hotels & Travel', ' Hostels', ' Hotels', ' Event Planning & Services']","{'ByAppointmentOnly': 'True', 'WiFi': ""u'free'"", 'BusinessAcceptsCreditCards': 'True', 'RestaurantsPriceRange2': '1', 'DogsAllowed': 'False'}",1
JIrsBVXBPGeW5hRZvX7ZuA,Residence Inn by Marriott Philadelphia Center City,3.5,One East Penn Sq,13109.0,39.9526484795,-75.1624528099,"['Hotels & Travel', ' Event Planning & Services', ' Apartments', ' Home Services', ' Hotels', ' Real Estate', ' Venues & Event Spaces']","{'RestaurantsPriceRange2': '2', 'WiFi': ""u'free'"", 'BusinessAcceptsCreditCards': 'True', 'BusinessAcceptsBitcoin': 'False', 'DogsAllowed': 'True', 'WheelchairAccessible': 'True'}",1
6UtUOlVQBKoCdWUqQWDz5Q,Philadelphia Chocolate Tours,2.5,,13109.0,39.9559288,-75.1574567,"['Hotels & Travel', ' Specialty Food', ' Tours', ' Chocolatiers & Shops', ' Food']","{'BusinessParking': ""{'garage': False, 'street': False, 'validated': False, 'lot': False, 'valet': False}"", 'BusinessAcceptsCreditCards': 'True', 'RestaurantsPriceRange2': '2'}",1
rNPddzp4s_Zgj3nrZcYZaA,Budget Rent A Car,1.5,1 Arrivals Rd,13109.0,39.878685,-75.245255,"['Hotels & Travel', ' Car Rental']",None,1
tpS5qq7iSJLKD38pM02lZA,All City Taxi,2.0,2024 S 12th St,13109.0,39.9244258,-75.1660812,"['Hotels & Travel', ' Airport Shuttles', ' Taxis', ' Transportation']",None,1
JGhgV4FBAwMTr8w-_UcZJA,Omni Hotel at Independence Park,3.5,"401 Chestnut St, Ste 1",13109.0,39.9490605,-75.1477326,"['Hotels & Travel', ' Event Planning & Services', ' Hotels']","{'BusinessAcceptsCreditCards': 'True', 'WiFi': ""u'free'"", 'RestaurantsPriceRange2': '3'}",1
VkMokNW-HLye5jc8_1l_vA,Greensgrow Farms,4.5,2501 E Cumberland St,13109.0,39.9781699,-75.1208563,"['Hotels & Travel', ' Food', ' Venues & Event Spaces', ' Home & Garden', ' Nurseries & Gardening', ' Tours', ' CSA', ' Event Planning & Services', ' Shopping', ' Christmas Trees', ' Community Service/Non-Profit', ' Local Services', ' Farmers Market']","{'RestaurantsPriceRange2': '2', 'BusinessAcceptsCreditCards': 'True', 'BusinessParking': ""{'garage': False, 'street': True, 'validated': False, 'lot': False, 'valet': False}"", 'BusinessAcceptsBitcoin': 'False', 'RestaurantsDelivery': 'True', 'Caters': 'False', 'BikeParking': 'True', 'RestaurantsTakeOut': 'False', 'HappyHour': 'False', 'DogsAllowed': 'True'}",1
yzmfVvTu7_zxcB9vBv7dDg,GSpa,3.5,817 N 2nd St,13109.0,39.9634533,-75.140699,"['Day Spas', ' Nail Salons', ' Skin Care', ' Beauty & Spas']","{'RestaurantsPriceRange2': '2', 'BusinessParking': ""{'garage': False, 'street': True, 'validated': False, 'lot': False, 'valet': False}"", 'BusinessAcceptsCreditCards': 'True', 'ByAppointmentOnly': 'False'}",1
PcazBGGgZFBiWWpBrbbMEQ,Extended Stay America - Indianapolis - West 86th St.,1.5,8520 Northwest Blvd,30.0,39.9092849,-86.267766,"['Hotels & Travel', ' Event Planning & Services', ' Hotels']","{'RestaurantsPriceRange2': '1', 'BusinessAcceptsCreditCards': 'True', 'WiFi': ""u'free'""}",1
fr5URHkQU59sdka9ShjHJw,Comfort Inn & Suites North At The Pyramids,1.5,9090 Wesleyan Rd,30.0,39.9184227,-86.2248327,"['Hotels & Travel', ' Event Planning & Services', ' Hotels']","{'WiFi': ""u'free'"", 'RestaurantsPriceRange2': '2', 'BusinessAcceptsCreditCards': 'True'}",1
Rt715mstuuUE08H0IpmusA,Segway of Indiana,5.0,853 E 65th St,30.0,39.873469,-86.1432108,"['Hotels & Travel', ' Tours']",None,1
xc9Kk_eKG62gE9tbE408xw,Comfort Inn South,2.0,5040 S East St,30.0,39.691671,-86.149677,"['Hotels & Travel', ' Event Planning & Services', ' Hotels']","{'BusinessAcceptsCreditCards': 'True', 'RestaurantsPriceRange2': '2', 'WiFi': ""'free'""}",1
F-CpNSss5CQ0TxAR0Nij_w,Bella Stella Limo,2.5,"2801 Fortune Cir E, Ste A",30.0,39.735189,-86.247094,"['Hotels & Travel', ' Transportation', ' Tours', ' Limos', ' Airport Shuttles']",None,1
VPxeyXTL9VatQt3FPa-YQg,Super 8 by Wyndham Indianapolis West,1.5,5241 W. Bradbury Ave,30.0,39.7313443,-86.2482669,"['Hotels', ' Event Planning & Services', ' Hotels & Travel']","{'WiFi': ""'free'"", 'RestaurantsPriceRange2': '1', 'BusinessAcceptsCreditCards': 'True'}",1
cZamrivcsy0PwlALYS8l7Q,Woodspring Suites,2.0,9515 Pendleton Pike,30.0,39.8486931212,-85.9999730811,"['Hotels', ' Event Planning & Services', ' Hotels & Travel']",None,1
w7AqAGhGX-zlCM-pVdXntA,Ironworks Hotel Indianapolis,4.5,2721 E 86th St,30.0,39.9119906,-86.1177247,"['Hotels', ' Event Planning & Services', ' Hotels & Travel']","{'WiFi': ""'free'"", 'DogsAllowed': 'True', 'RestaurantsPriceRange2': '3', 'BusinessAcceptsCreditCards': 'True'}",1
BRGIa4noG3pB_f-sd2CiBg,Hilton Indianapolis Hotel & Suites,3.5,120 W Market St,30.0,39.7689576,-86.1601024,"['Hotels', ' Restaurants', ' American (Traditional)', ' Hotels & Travel', ' Event Planning & Services']","{'RestaurantsGoodForGroups': 'True', 'RestaurantsReservations': 'True', 'RestaurantsDelivery': 'False', 'BusinessAcceptsCreditCards': 'True', 'Alcohol': ""'full_bar'"", 'WiFi': ""u'paid'"", 'BikeParking': 'True', 'Ambience': ""{'romantic': False, 'intimate': False, 'classy': False, 'hipster': False, 'divey': False, 'touristy': False, 'trendy': False, 'upscale': False, 'casual': False}"", 'GoodForMeal': ""{'dessert': False, 'latenight': False, 'lunch': False, 'dinner': False, 'brunch': False, 'breakfast': False}"", 'HasTV': 'True', 'RestaurantsTakeOut': 'False', 'OutdoorSeating': 'False', 'RestaurantsAttire': ""'casual'"", 'BusinessParking': ""{'garage': True, 'street': True, 'validated': False, 'lot': True, 'valet': False}"", 'RestaurantsPriceRange2': '3', 'Caters': 'False', 'GoodForKids': 'True', 'NoiseLevel': ""'quiet'""}",1
gEdBdZ-wdUbEWeZeEB3xNg,Holiday Inn Indianapolis Airport,4.0,8555 Stansted Rd,30.0,39.6748865992,-86.3107334919,"['Hotels', ' Resorts', ' Hotels & Travel', ' Event Planning & Services', ' Venues & Event Spaces']","{'WheelchairAccessible': 'True', 'WiFi': ""'free'"", 'RestaurantsPriceRange2': '2', 'BusinessAcceptsCreditCards': 'True', 'DogsAllowed': 'False', 'BusinessAcceptsBitcoin': 'False'}",1
lg_ulnOYuQbZZ3VnMSXCOg,Wingate By Wyndham Indianapolis,3.0,6240 Intech Commons Drive,30.0,39.8795684,-86.2710102,"['Hotels', ' Hotels & Travel', ' Event Planning & Services']","{'BusinessAcceptsCreditCards': 'True', 'RestaurantsPriceRange2': '2', 'WiFi': ""'paid'""}",1
2R0kOS7P3F624H6rUy0Fpg,La Quinta by Wyndham Indianapolis Downtown,3.0,401 E. Washington Street,30.0,39.7664498,-86.1505402,"['Hotels', ' Hotels & Travel', ' Event Planning & Services']","{'RestaurantsPriceRange2': '2', 'WiFi': ""u'free'"", 'BusinessAcceptsCreditCards': 'True'}",1
JuL0FCffA9l-yCkXxKip8w,Foot Loose,3.5,8936 St Peter St,30.0,39.636195,-86.1227369,"['Day Spas', ' Health & Medical', ' Reflexology', ' Beauty & Spas', ' Massage Therapy', ' Massage']","{'ByAppointmentOnly': 'False', 'BusinessParking': ""{'garage': False, 'street': None, 'validated': False, 'lot': None, 'valet': False}"", 'WiFi': ""u'no'"", 'BikeParking': 'True', 'BusinessAcceptsBitcoin': 'False', 'RestaurantsPriceRange2': '1', 'BusinessAcceptsCreditCards': 'True', 'WheelchairAccessible': 'True', 'AcceptsInsurance': 'False'}",1
bWQ11DwK4fE2obt2eTh81A,La Beaute Spa,4.5,"3940 W 96th St, Ste a",30.0,39.9264496011,-86.2284554558,"['Day Spas', ' Health & Medical', ' Beauty & Spas', ' Skin Care', ' Medical Spas']","{'BusinessParking': ""{'garage': False, 'street': False, 'validated': False, 'lot': True, 'valet': False}"", 'BusinessAcceptsCreditCards': 'True', 'BikeParking': 'False', 'RestaurantsPriceRange2': '2', 'ByAppointmentOnly': 'False', 'WheelchairAccessible': 'True', 'AcceptsInsurance': 'False', 'BusinessAcceptsBitcoin': 'False', 'WiFi': ""u'free'""}",1
-oobSz7KVoUOtra6HWKkQA,Enterprise Rent-A-Car,3.5,1571 N Olden Ave,10065.0,40.2421961,-74.7558969,"['Hotels & Travel', ' Car Rental']",None,1
g9VjloFtS0S2p4_XoV1ReQ,Springhill Suites by Marriott Tampa North/I-75 Tampa Palms,4.0,5396 Primrose Lake Cir,17.0,28.127381,-82.3777015,"['Hotels & Travel', ' Event Planning & Services', ' Hotels']","{'BusinessAcceptsCreditCards': 'True', 'RestaurantsPriceRange2': '2', 'WiFi': ""u'free'""}",1
7akaRRko9CzFQ3FGemCn4g,Crowne Plaza Tampa Westshore,3.0,5303 W Kennedy Blvd,17.0,27.945346,-82.532936,"['Hotels & Travel', ' Venues & Event Spaces', ' Hotels', ' Event Planning & Services']","{'WiFi': ""u'free'"", 'BusinessAcceptsCreditCards': 'True', 'ByAppointmentOnly': 'True', 'RestaurantsPriceRange2': '2'}",1
ze-Ksh7oCaNk4lihlpAkdw,Vista Inn and Suites Tampa,2.0,400 E Bearss Ave,17.0,28.0891578236,-82.4567840253,"['Hotels & Travel', ' Event Planning & Services', ' Hotels']","{'BusinessAcceptsCreditCards': 'True', 'RestaurantsPriceRange2': '2', 'WiFi': ""u'free'""}",1
ZnsI7cdmEdTKT6RWcsKCAQ,Payless Car Rental,1.0,6903 N Dale Mabry Hwy,17.0,28.0114071,-82.504311,"['Hotels & Travel', ' Car Rental']",None,1
gbOFWcLcgUOfRvMSeDj5Hw,Enterprise Rent-A-Car,4.0,13739 N Dale Mabry Hwy,17.0,28.0710726993,-82.5054532896,"['Hotels & Travel', ' Car Rental']",None,1
nhVlnqc_LrI7Z23rrdO-TQ,Embassy Suites by Hilton Tampa Brandon,4.0,10220 Palm River Rd,17.0,27.941591,-82.3324246,"['Hotels & Travel', ' Hotels', ' Venues & Event Spaces', ' Event Planning & Services']","{'WiFi': ""u'paid'"", 'BusinessAcceptsCreditCards': 'True', 'RestaurantsPriceRange2': '2'}",1
394-E4Ren-NAP4i5YwC1VA,Lost Pearl Pirate Cruises,3.5,333 S Franklin St,17.0,27.9406816245,-82.455506955,"['Hotels & Travel', ' Ferries', ' Transportation', ' Event Planning & Services', ' Boat Charters']",None,1
a_OkPbk51U7gCyArNEna0g,717 Parking Enterprises,1.0,1523 N Franklin St,17.0,27.9569931328,-82.4601589143,"['Hotels & Travel', ' Parking', ' Auto Detailing', ' Automotive', ' Transportation']",{'BusinessAcceptsCreditCards': 'True'},1
5RdQt9GDQky9PVOPSfIh7g,Firefly,2.0,"1200 North Westshore Blvd, 1200 North Westshore Blvd",17.0,27.953916,-82.525174,"['Hotels & Travel', ' Car Rental']",None,1
dHR2mn58u7J3kxpUIPBymQ,Motel 6 No 483,1.0,333 E Fowler Ave,17.0,28.0539490662,-82.4558344436,"['Hotels & Travel', ' Event Planning & Services', ' Hotels']","{'BusinessAcceptsCreditCards': 'True', 'WiFi': ""u'paid'"", 'RestaurantsPriceRange2': '2'}",1
0gJmDImte1jwNN3leCZmPA,ACE Rent a Car,2.0,5405 Airport Service Rd,17.0,27.9644109389,-82.5353774025,"['Hotels & Travel', ' Car Rental', ' Airports']","{'WiFi': ""u'no'""}",1
sjgFuxDHiVOHrfuP1MtEkg,Pirate Water Taxi,3.0,603 Channelside Dr,17.0,27.942202,-82.4482156,"['Hotels & Travel', ' Taxis', ' Transportation', ' Public Transportation']",None,1
8C0jJ6AmcDZGscuABtZRdQ,The Barrymore Hotel Tampa Riverwalk,3.0,111 W Fortune St,17.0,27.9530053,-82.4639815,"['Hotels & Travel', ' Hotels', ' Event Planning & Services']","{'RestaurantsPriceRange2': '2', 'WiFi': ""'free'"", 'BusinessAcceptsBitcoin': 'False', 'DogsAllowed': 'True', 'ByAppointmentOnly': 'False', 'BusinessAcceptsCreditCards': 'True'}",1
ZMU2DLe1Njl59yDi97TH5w,Extended Stay America - Tampa - North Airport,1.5,5401 Beaumont Ctr. Blvd. East,17.0,27.997947,-82.546529,"['Hotels', ' Event Planning & Services', ' Hotels & Travel']","{'BusinessAcceptsCreditCards': 'True', 'WiFi': ""'free'"", 'RestaurantsPriceRange2': '2'}",1
snNbJG8JYbpe8H5xsHjn_Q,The Don Vicente de Ybor Historic Inn,4.0,"1915 Republica de Cuba, 14th St & 9th Ave",17.0,27.9617460891,-82.4100503153,"['Hotels', ' Local Flavor', ' Hotels & Travel', ' Event Planning & Services']","{'BusinessAcceptsCreditCards': 'True', 'WiFi': ""'free'"", 'RestaurantsPriceRange2': '2'}",1
a9mX_pOERGedTzStIVhZCg,Rodeway Inn,1.0,2307 East Busch Blvd,17.0,28.031818,-82.43398,"['Hotels', ' Hotels & Travel', ' Event Planning & Services']",None,1
H4Rv_BQU7we_PZmzLAP4ng,DoubleTree by Hilton Hotel Tampa Airport - Westshore,2.0,4500 W Cypress St,17.0,27.9515686,-82.5212099,"['Hotels', ' Event Planning & Services', ' Hotels & Travel']","{'WiFi': ""'free'"", 'RestaurantsPriceRange2': '2', 'BusinessAcceptsCreditCards': 'True'}",1
pE9ftICDIxY3Uo8hDeNHeA,Country Inn & Suites by Radisson,3.0,8109 Benjamin Rd,17.0,28.0244296,-82.541226,"['Hotels', ' Event Planning & Services', ' Airports', ' Hotels & Travel']","{'RestaurantsPriceRange2': '2', 'BusinessAcceptsCreditCards': 'True', 'WiFi': ""u'free'"", 'BusinessAcceptsBitcoin': 'False', 'DogsAllowed': 'False'}",1
er1F_GjkUc26eDceQl1-dA,Sleep Inn Near Busch Gardens - Usf,2.5,12282 Morris Bridge Rd,17.0,28.068141,-82.358774,"['Hotels', ' Hotels & Travel', ' Event Planning & Services']","{'RestaurantsPriceRange2': '2', 'BusinessAcceptsCreditCards': 'True', 'WiFi': ""u'free'""}",1
AuOUAnC-231fkWCs_OQX5Q,Days Inn By Wyndham Tampa,1.5,5405 N Church Ave,17.0,27.9978188,-82.506938,"['Hotels', ' Hotels & Travel', ' Event Planning & Services']",None,1
fNxKMJNmT4UnbHLhcLORUw,Hand & Stone Massage and Facial Spa,4.0,124 S Westshore Blvd,17.0,27.9441159,-82.5234839,"['Day Spas', ' Skin Care', ' Beauty & Spas', ' Massage']","{'BusinessAcceptsCreditCards': 'True', 'ByAppointmentOnly': 'True', 'BusinessParking': ""{'garage': False, 'street': False, 'validated': False, 'lot': False, 'valet': False}"", 'RestaurantsPriceRange2': '2', 'BikeParking': 'True', 'AcceptsInsurance': 'False'}",1
A3avJvt325N89FOPQyiyWQ,Beauty Lounge Salon & Day Spa,4.5,8635 Citrus Park Dr,17.0,28.065865,-82.580797,"['Day Spas', ' Hair Salons', ' Beauty & Spas']","{'GoodForKids': 'True', 'RestaurantsPriceRange2': '2', 'BusinessParking': ""{'garage': False, 'street': False, 'validated': False, 'lot': True, 'valet': False}"", 'BusinessAcceptsCreditCards': 'True', 'ByAppointmentOnly': 'False', 'BikeParking': 'True', 'WiFi': ""u'free'""}",1
Qh93QcOKip9Cr5KUSU8Imw,Enterprise Rent-A-Car,2.5,4140 Commercial Way,13542.0,28.4886629276,-82.6005390286,"['Hotels & Travel', ' Car Rental']",None,1
zJEPpflG5FbDAtPg1oVEgw,Microtel Inn & Suites by Wyndham Spring Hill/Weeki Wachee,3.5,4881 Commerical Way,13542.0,28.4804054105,-82.5939198985,"['Hotels', ' Hotels & Travel', ' Event Planning & Services']","{'RestaurantsPriceRange2': '2', 'BusinessAcceptsCreditCards': 'True', 'WiFi': ""u'free'""}",1
3StbUpz7IWtOeOpOvPhphg,Beauty by Azi,4.0,3274 Commercial Way,13542.0,28.4787675349,-82.60937802,"['Day Spas', ' Nail Salons', ' Permanent Makeup', ' Eyelash Service', ' Beauty & Spas', ' Skin Care', ' Hair Salons', ' Hair Stylists']","{'RestaurantsPriceRange2': '2', 'BikeParking': 'True', 'BusinessParking': ""{'garage': False, 'street': False, 'validated': False, 'lot': True, 'valet': False}"", 'WheelchairAccessible': 'True', 'BusinessAcceptsCreditCards': 'True', 'ByAppointmentOnly': 'False', 'HairSpecializesIn': ""{'straightperms': True, 'coloring': True, 'extensions': True, 'africanamerican': True, 'curly': True, 'kids': True, 'perms': True, 'asian': True}"", 'BusinessAcceptsBitcoin': 'False', 'GoodForKids': 'True'}",1
c7JyGysafmch_P0XZ8dAdQ,Holiday Inn Express & Suites St. Petersburg North,3.0,2171 54th Ave North,166.0,27.8223936,-82.6625743,"['Hotels & Travel', ' Hotels', ' Venues & Event Spaces', ' Event Planning & Services']","{'BusinessAcceptsCreditCards': 'True', 'RestaurantsPriceRange2': '2', 'WiFi': ""u'free'""}",1
GzLPa4mhmi5nf0Qyker6EQ,Palm Bay Hotel,2.0,711 3rd Ave S,166.0,27.7686934,-82.6435333,['Hotels & Travel'],None,1
s6bVg8O4OUumsFn1RCS66g,Flamingo Resort,2.0,4601 34th St S,166.0,27.7259393,-82.6800814,"['Hostels', ' Gay Bars', ' Bars', ' Nightlife', ' Hotels', ' Hotels & Travel', ' Event Planning & Services', ' Restaurants', ' Resorts']","{'HappyHour': 'True', 'HasTV': 'True', 'WheelchairAccessible': 'True', 'WiFi': ""u'free'"", 'BusinessAcceptsCreditCards': 'True', 'Smoking': ""u'outdoor'"", 'RestaurantsPriceRange2': '1', 'CoatCheck': 'False', 'BikeParking': 'True', 'Alcohol': ""u'full_bar'"", 'OutdoorSeating': 'True', 'BusinessParking': ""{'garage': False, 'street': False, 'validated': False, 'lot': False, 'valet': False}""}",1
HceUB5Trzv_RJzCXcfJ6Uw,Spa Oceana,3.5,3400 Gulf Blvd,166.0,27.7088258986,-82.7376207461,"['Day Spas', ' Skin Care', ' Beauty & Spas', ' Massage', ' Hair Salons']","{'BikeParking': 'True', 'ByAppointmentOnly': 'True', 'BusinessAcceptsCreditCards': 'True', 'BusinessParking': ""{'garage': False, 'street': False, 'validated': True, 'lot': True, 'valet': True}"", 'RestaurantsPriceRange2': '3'}",1
zuiHD4jjJoutG4aOXxJPAw,Laniakea Salon & Spa,3.0,9059 4th St N,166.0,27.8545725,-82.6383105,"['Day Spas', ' Massage', ' Beauty & Spas', ' Nail Salons', ' Hair Salons']","{'BusinessParking': ""{'garage': False, 'street': False, 'validated': False, 'lot': False, 'valet': False}"", 'BikeParking': 'True', 'ByAppointmentOnly': 'False', 'BusinessAcceptsCreditCards': 'True', 'AcceptsInsurance': 'False', 'GoodForKids': 'True', 'WheelchairAccessible': 'True', 'RestaurantsPriceRange2': '2'}",1
EMjC_SpCgx8-UnjrBVRylQ,Enterprise Car Share,2.0,1226 Chestnut St,7.0,39.9503525,-75.1614904,"['Hotels & Travel', ' Car Rental']",None,1
rOQ6I3QglJeXev8Wsx9hkw,Hyatt Regency Philadelphia,3.5,"Penn's Landing, 201 S Columbus Blvd",7.0,39.9453341,-75.1414441,"['Hotels & Travel', ' Event Planning & Services', ' Hotels']","{'RestaurantsPriceRange2': '3', 'BusinessAcceptsCreditCards': 'True', 'WiFi': ""u'paid'""}",1
zsHuf8OY7TDKqZ2e307Hzw,Avis Rent A Car,2.0,2000 Arch St,7.0,39.9555186,-75.1733289,"['Hotels & Travel', ' Car Rental']",None,1
cdZf-iYQRy5D18gTM95aew,The Bellevue Hotel,3.5,200 S Broad St,7.0,39.9491188,-75.1648441,"['Hotels & Travel', ' Event Planning & Services', ' Restaurants', ' Hotels']","{'Ambience': ""{'romantic': False, 'intimate': False, 'touristy': False, 'hipster': False, 'divey': False, 'classy': False, 'trendy': False, 'upscale': False, 'casual': False}"", 'RestaurantsPriceRange2': '3', 'RestaurantsGoodForGroups': 'True', 'BusinessAcceptsCreditCards': 'True', 'WiFi': ""'free'"", 'RestaurantsAttire': ""u'dressy'"", 'DogsAllowed': 'True', 'RestaurantsDelivery': 'False'}",1
sYlexNuXRw7L1UDn3P-EkA,Spirit Airlines,1.5,8000 Essington Ave,7.0,39.8743959,-75.2424229,"['Hotels & Travel', ' Airlines', ' Transportation']",None,1
NvaHGU03m-hvXIGScPe6WQ,Holiday Inn Express Philadelphia-Midtown,3.5,1305 Walnut St,7.0,39.9493353797,-75.1626115157,"['Hotels & Travel', ' Event Planning & Services', ' Hotels', ' Venues & Event Spaces']","{'WiFi': ""u'free'"", 'BusinessAcceptsCreditCards': 'True', 'RestaurantsPriceRange2': '2'}",1
469cDiOBw6Hs0dUdFQrEmg,Philadelphia Passport Agency,4.0,"200 Chestnut St, Room 103",7.0,39.9478166235,-75.1451435,"['Hotels & Travel', ' Travel Services', ' Passport & Visa Services', ' Public Services & Government', ' Embassy']",None,1
5CCWbCvlxPCX3kLSSFTfEA,Chestnut Hill Tower Apartments,2.0,7600 Stenton Ave,7.0,40.0732581,-75.1906974,"['Hotels & Travel', ' Event Planning & Services', ' Apartments', ' Hotels', ' Home Services', ' Real Estate']","{'ByAppointmentOnly': 'True', 'BusinessAcceptsCreditCards': 'True'}",1
G5rmqJ7nPv04Jm1slaDYsA,Yellow Cab,1.0,8125 Frankford Ave,7.0,40.042053,-75.024137,"['Hotels & Travel', ' Transportation', ' Taxis']",None,1
6VPD2WrgtD8h5UzjqaUnFA,Delmonico's Steakhouse,3.0,4200 City Ave,7.0,40.004379,-75.218198,"['Hotels & Travel', ' Restaurants', ' Event Planning & Services', ' Bars', ' Nightlife', ' American (Traditional)', ' Hotels', ' Steakhouses', ' Lounges']","{'OutdoorSeating': 'False', 'GoodForKids': 'False', 'Alcohol': ""u'full_bar'"", 'RestaurantsGoodForGroups': 'True', 'RestaurantsTakeOut': 'True', 'WiFi': ""'paid'"", 'RestaurantsPriceRange2': '3', 'RestaurantsDelivery': 'False', 'RestaurantsAttire': ""'dressy'"", 'NoiseLevel': ""u'quiet'"", 'BusinessAcceptsCreditCards': 'True', 'RestaurantsReservations': 'True', 'HasTV': 'True', 'BikeParking': 'False', 'GoodForMeal': ""{'dessert': False, 'latenight': False, 'lunch': False, 'dinner': False, 'brunch': False, 'breakfast': False}"", 'BusinessParking': ""{'garage': False, 'street': False, 'validated': False, 'lot': False, 'valet': True}"", 'Ambience': ""{'touristy': False, 'hipster': False, 'romantic': False, 'divey': False, 'intimate': None, 'trendy': False, 'upscale': None, 'classy': False, 'casual': None}""}",1
2yLeUev-KhtxTPOEmTLaYQ,"The Yo, Philly! Rocky Film Tour LLC",5.0,,7.0,39.9556241,-75.1647529,"['Hotels & Travel', ' Bus Tours', ' Tours']",None,1
hh6t95hiS-RqRt6bEz1SPw,Union League of Philadelphia,4.0,140 S Broad St,7.0,39.949988,-75.1645963,"['Hotels & Travel', ' Restaurants', ' Arts & Entertainment', ' American (Traditional)', ' Hotels', ' American (New)', ' Venues & Event Spaces', ' Social Clubs', ' Event Planning & Services']","{'RestaurantsDelivery': 'False', 'BusinessAcceptsCreditCards': 'True', 'OutdoorSeating': 'False', 'RestaurantsPriceRange2': '4', 'RestaurantsReservations': 'True', 'Alcohol': ""u'full_bar'"", 'RestaurantsAttire': ""'formal'"", 'RestaurantsGoodForGroups': 'True', 'Caters': 'True', 'HasTV': 'True', 'GoodForKids': 'False', 'Ambience': ""{'touristy': False, 'hipster': False, 'romantic': False, 'divey': False, 'intimate': False, 'trendy': False, 'upscale': True, 'classy': True, 'casual': False}"", 'BusinessParking': ""{'garage': True, 'street': False, 'validated': False, 'lot': False, 'valet': True}"", 'RestaurantsTakeOut': 'False', 'NoiseLevel': ""'quiet'"", 'BikeParking': 'False', 'WiFi': ""u'free'"", 'WheelchairAccessible': 'True', 'GoodForMeal': ""{'dessert': None, 'latenight': False, 'lunch': True, 'dinner': True, 'brunch': None, 'breakfast': None}"", 'HappyHour': 'True', 'DogsAllowed': 'False', 'RestaurantsTableService': 'True'}",1
-zsr3CEpjUKWvRNl9c7ecw,Beyond the Bell Tours,5.0,,7.0,39.9493801,-75.145782,"['Hotels & Travel', ' Historical Tours', ' Walking Tours', ' Tours']","{'WiFi': ""u'no'""}",1
E9oGqbo7KWr_NKZTsmzqaQ,Hertz Rent A Car,1.5,4100 Presidential Blvd,7.0,40.0069291,-75.2106659,"['Hotels & Travel', ' Car Rental']",None,1
MhyQpGPcR1Nnv5U4EXpr3w,Founding Footsteps,5.0,302 Arch St,7.0,39.9520345,-75.1454345,"['Hotels & Travel', ' Tours', ' Historical Tours', ' Bus Tours']",None,1
U8GIloQDPVLV5JH3NjeUcA,Avis Rent A Car,1.5,201 S Columbus Blvd,7.0,39.9457341,-75.1413125,"['Hotels & Travel', ' Car Rental']",None,1
oUcqQ_WgA2kZtHfa1Vu2Ug,8th & Market Patco High Speed Line,3.5,8TH And Market,7.0,39.9511521251,-75.1535868645,"['Hotels & Travel', ' Public Transportation', ' Train Stations', ' Transportation']",None,1
SmX1YLOOAGWOIArWi5ZFgQ,SEPTA Green Line,2.5,West Philly Univ City And Center City,7.0,39.9536418,-75.1987107,"['Hotels & Travel', ' Transportation', ' Public Transportation']",None,1
RsV2OtsZhoGcL1hDQ80ebQ,Enterprise Rent-A-Car,4.0,7001 Essington Ave,7.0,39.9010336821,-75.2269565463,"['Hotels & Travel', ' Car Rental']",None,1
5T-jq06UkT4Z1DJwityUmg,Campus Park & Ride,3.5,1600 S Warfield St,7.0,39.9342093252,-75.2018901365,"['Hotels & Travel', ' Parking', ' RV Parks', ' Automotive']",None,1
6UTCtOa2oit07DePqqCe1w,American Airlines,1.5,8000 Essington Ave,7.0,39.8758573235,-75.2439795292,"['Hotels & Travel', ' Transportation', ' Airlines']",None,1
KGvGSfvlWzurRu247ckEPw,Four Points by Sheraton Philadelphia City Center,3.0,1201 Race St,7.0,39.9560366,-75.1591784,"['Hotels & Travel', ' Hotels', ' Event Planning & Services', ' Venues & Event Spaces']","{'RestaurantsPriceRange2': '2', 'BusinessAcceptsCreditCards': 'True', 'BusinessAcceptsBitcoin': 'False', 'DogsAllowed': 'False', 'WiFi': ""u'free'"", 'WheelchairAccessible': 'True'}",1
fJhOwBljOz3VJV-BhCB3hg,"Home2 Suites by Hilton Philadelphia - Convention Center, PA",3.5,1200 Arch St,7.0,39.9536826978,-75.159804225,"['Hotels & Travel', ' Hotels', ' Event Planning & Services']","{'WiFi': ""u'free'"", 'BusinessAcceptsCreditCards': 'True', 'RestaurantsPriceRange2': '2'}",1
kH2bJtlej-8oDv8KjsEzCg,Holiday Inn Philadelphia Stadium,2.5,900 Packer Ave,7.0,39.9093697,-75.1646366,"['Hotels & Travel', ' Venues & Event Spaces', ' Hotels', ' Event Planning & Services']","{'RestaurantsPriceRange2': '2', 'BusinessAcceptsCreditCards': 'True', 'WiFi': ""u'free'""}",1
0bvtIbpsqBJZpRKSPwIfNw,Panorama,4.0,14 N Front St,7.0,39.950201,-75.142285,"['Hotels & Travel', ' Bars', ' Food', ' Wine Bars', ' Beer', ' Wine & Spirits', ' Event Planning & Services', ' Nightlife', ' Hotels', ' Gluten-Free', ' Restaurants', ' Italian']","{'RestaurantsPriceRange2': '3', 'Alcohol': ""'full_bar'"", 'BusinessParking': ""{'garage': False, 'street': True, 'validated': False, 'lot': True, 'valet': False}"", 'RestaurantsGoodForGroups': 'True', 'WiFi': ""u'free'"", 'GoodForKids': 'False', 'RestaurantsAttire': ""'dressy'"", 'HasTV': 'True', 'RestaurantsReservations': 'True', 'GoodForMeal': ""{'dessert': None, 'latenight': False, 'lunch': False, 'dinner': True, 'brunch': False, 'breakfast': False}"", 'BikeParking': 'False', 'BusinessAcceptsCreditCards': 'True', 'Music': ""{'dj': False, 'background_music': False, 'no_music': False, 'jukebox': False, 'live': False, 'video': False, 'karaoke': False}"", 'GoodForDancing': 'False', 'DriveThru': 'False', 'Smoking': ""u'no'"", 'RestaurantsTakeOut': 'True', 'RestaurantsTableService': 'True', 'Caters': 'False', 'OutdoorSeating': 'True', 'WheelchairAccessible': 'True', 'Ambience': ""{'touristy': False, 'hipster': False, 'romantic': False, 'divey': False, 'intimate': True, 'trendy': False, 'upscale': False, 'classy': True, 'casual': False}"", 'BestNights': ""{'monday': True, 'tuesday': False, 'friday': True, 'wednesday': False, 'thursday': False, 'sunday': False, 'saturday': True}"", 'RestaurantsDelivery': 'True', 'HappyHour': 'True', 'CoatCheck': 'True', 'NoiseLevel': ""u'quiet'""}",1
oDUOu3W3pO2PG4QzzlxUfg,Enterprise Rent-A-Car,3.5,727 Chestnut St,7.0,39.9497084,-75.1535006,"['Hotels & Travel', ' Car Rental']",None,1
MdxSCDMlOPZ2peHIDUZSFg,Courtyard by Marriott Philadelphia Airport,3.5,8900 Bartram Ave,7.0,39.8849770662,-75.2513694763,"['Hotels & Travel', ' Event Planning & Services', ' Hotels', ' Venues & Event Spaces']","{'BusinessAcceptsCreditCards': 'True', 'RestaurantsPriceRange2': '2', 'BusinessAcceptsBitcoin': 'False', 'WheelchairAccessible': 'True', 'DogsAllowed': 'False', 'WiFi': ""u'free'""}",1
4Peac-dIOM80hSw9iqEAJw,Hertz,1.5,1201 Market St,7.0,39.952297,-75.160785,"['Hotels & Travel', ' Car Rental']",None,1
yjVqm4shWfOriY8wakOB5Q,Ali Baba Limo,4.0,4701 Ridge Ave,7.0,40.0138774,-75.202729,"['Hotels & Travel', ' Transportation', ' Limos']",None,1
4hM6GbEq5Jt-YZ0vRN1-Lw,The Gables,5.0,4520 Chester Ave,7.0,39.9468926,-75.2121474,"['Hotels & Travel', ' Bed & Breakfast', ' Hotels', ' Event Planning & Services']","{'RestaurantsPriceRange2': '3', 'WiFi': ""u'free'"", 'ByAppointmentOnly': 'True'}",1
TZhCpOoo4TIg7dgftWNKyQ,W Philadelphia,3.5,1439 Chestnut St,7.0,39.9515202,-75.1650621,"['Hotels', ' Hotels & Travel', ' Event Planning & Services']","{'BusinessAcceptsCreditCards': 'True', 'BusinessAcceptsBitcoin': 'False', 'WiFi': ""u'free'"", 'DogsAllowed': 'True'}",1
xcySfsPDols3EdtFC6b76g,Sheraton Philadelphia University City Hotel,2.5,3549 Chestnut St,7.0,39.954872,-75.194173,"['Hotels', ' Hotels & Travel', ' Venues & Event Spaces', ' Event Planning & Services']","{'RestaurantsPriceRange2': '2', 'WiFi': ""u'free'"", 'BusinessAcceptsCreditCards': 'True', 'BusinessAcceptsBitcoin': 'False', 'DogsAllowed': 'True', 'ByAppointmentOnly': 'True'}",1
TDLkD6gOkn1jJ93go1ZySQ,Sheraton Philadelphia Downtown,2.5,201 North 17th Street,7.0,39.9570991,-75.1670329,"['Hotels', ' Hotels & Travel', ' Event Planning & Services']",None,1
jMqEQYBIztLtcvnTujfHUA,Hyatt Centric Center City Philadelphia,4.0,1620 Chancellor St,7.0,39.9493052,-75.1689368,"['Hotels', ' Event Planning & Services', ' Venues & Event Spaces', ' Hotels & Travel']","{'DogsAllowed': 'True', 'BusinessAcceptsBitcoin': 'False', 'WheelchairAccessible': 'True', 'WiFi': ""u'free'"", 'BusinessAcceptsCreditCards': 'True'}",1
4UZgIeaRWuOj3Z6LNMyaDA,Morris House Hotel,4.0,225 S 8th St,7.0,39.9473689,-75.1542873,"['Hotels', ' Hotels & Travel', ' Event Planning & Services', ' Bed & Breakfast']","{'RestaurantsPriceRange2': '3', 'WiFi': ""u'free'"", 'BusinessAcceptsCreditCards': 'True'}",1
xKyIOJsQdB387ESxUJhWxw,Rittenhouse 1715,4.0,1715 Rittenhouse Sq,7.0,39.9484448,-75.1700653,"['Hotels', ' Hotels & Travel', ' Event Planning & Services', ' Bed & Breakfast']","{'RestaurantsPriceRange2': '3', 'BusinessAcceptsCreditCards': 'True', 'WiFi': ""u'free'""}",1
pFMGXlE1NwEXYPBgw3kRnA,Southern Inn,4.0,5741 Woodland Ave,7.0,39.9326866,-75.2245579,"['Hotels', ' Event Planning & Services', ' Restaurants', ' Hotels & Travel', ' Breakfast & Brunch']","{'Ambience': ""{'romantic': False, 'intimate': False, 'classy': False, 'hipster': False, 'divey': False, 'touristy': False, 'trendy': False, 'upscale': False, 'casual': False}"", 'RestaurantsPriceRange2': '1', 'RestaurantsReservations': 'False', 'GoodForKids': 'True', 'Alcohol': ""'none'"", 'BusinessAcceptsCreditCards': 'True', 'WiFi': ""'no'"", 'RestaurantsGoodForGroups': 'True', 'HasTV': 'True', 'RestaurantsTakeOut': 'True', 'GoodForMeal': ""{'dessert': False, 'latenight': False, 'lunch': False, 'dinner': False, 'brunch': False, 'breakfast': False}"", 'OutdoorSeating': 'False', 'BikeParking': 'False', 'RestaurantsAttire': ""'casual'"", 'RestaurantsDelivery': 'None'}",1
nruMoZnp3NfbDdBgbtS3LQ,Clinton Street Bed & Breakfast,4.5,1024 Clinton St,7.0,39.9451374,-75.1592598,"['Bed & Breakfast', ' Hotels & Travel']","{'WiFi': ""u'free'""}",1
CT7XiNIjnbx4zqjVYmtF9Q,Akwaaba Philadelphia,5.0,3709 Baring St,7.0,39.9611006,-75.1961034,"['Bed & Breakfast', ' Hotels & Travel']","{'WiFi': ""u'free'"", 'BusinessAcceptsCreditCards': 'True'}",1
z6AozFs7DVP8qssgdpusVQ,Trade Winds Bed and Breakfast,3.5,943 Lombard St,7.0,39.9439233,-75.1582765,"['Bed & Breakfast', ' Hotels & Travel']","{'WiFi': ""u'free'""}",1
mUWEmh14ZgOoSXp24Twntg,Manayunk Extended Stay,4.5,3937 Terrace St,7.0,40.0229532,-75.21429,"['Bed & Breakfast', ' Guest Houses', ' Hotels & Travel', ' Hotels', ' Event Planning & Services']","{'BusinessAcceptsCreditCards': 'True', 'BusinessAcceptsBitcoin': 'False', 'ByAppointmentOnly': 'False', 'WiFi': ""u'free'"", 'RestaurantsPriceRange2': '2', 'DogsAllowed': 'False'}",1
MJL8eYCOYhvYV1QPmgFa1w,Raw Lab Spa,4.5,264 S 10th St,7.0,39.9464568,-75.1580407,"['Day Spas', ' Nail Salons', ' Beauty & Spas']","{'WheelchairAccessible': 'False', 'BusinessParking': ""{'garage': True, 'street': True, 'validated': True, 'lot': True, 'valet': True}"", 'NoiseLevel': ""u'quiet'"", 'ByAppointmentOnly': 'False', 'BusinessAcceptsCreditCards': 'True', 'RestaurantsPriceRange2': '2', 'BikeParking': 'True', 'WiFi': ""u'free'"", 'BusinessAcceptsBitcoin': 'False'}",1
o1xMeeymj2rr23wWnrH8XA,Ends Hair Design And Day Spa,3.5,624 N Front St,7.0,39.961204,-75.138882,"['Day Spas', ' Eyelash Service', ' Beauty & Spas', ' Nail Salons', ' Massage', ' Hair Salons']","{'ByAppointmentOnly': 'False', 'BusinessParking': ""{'garage': False, 'street': True, 'validated': False, 'lot': False, 'valet': False}"", 'BikeParking': 'False', 'BusinessAcceptsBitcoin': 'False', 'BusinessAcceptsCreditCards': 'False', 'GoodForKids': 'True', 'WiFi': ""u'free'"", 'RestaurantsPriceRange2': '2'}",1
kxkYTD1bslb5PsRwJknZPQ,Chocolate City Hair Studio & Day Spa,3.0,6217-19 Woodland Ave,7.0,39.927952,-75.231193,"['Day Spas', ' Hair Salons', ' Beauty & Spas']","{'HairSpecializesIn': ""{'straightperms': True, 'coloring': True, 'extensions': True, 'africanamerican': True, 'curly': True, 'kids': True, 'perms': True, 'asian': True}"", 'GoodForKids': 'False', 'BusinessAcceptsCreditCards': 'True', 'BikeParking': 'True', 'ByAppointmentOnly': 'False', 'RestaurantsPriceRange2': '4', 'BusinessParking': ""{'garage': False, 'street': True, 'validated': False, 'lot': False, 'valet': False}"", 'WheelchairAccessible': 'True', 'WiFi': ""u'free'""}",1
tezJSHevV8pHSXAJKsqzFw,Artur Kirsh Salon and Spa,4.0,200 S Broad St,7.0,39.9491188,-75.1648441,"['Day Spas', ' Blow Dry/Out Services', ' Hair Salons', ' Beauty & Spas']","{'RestaurantsPriceRange2': '3', 'WiFi': ""u'free'"", 'ByAppointmentOnly': 'False', 'BikeParking': 'True', 'BusinessAcceptsBitcoin': 'False', 'WheelchairAccessible': 'True', 'BusinessParking': ""{'garage': True, 'street': True, 'validated': True, 'lot': False, 'valet': True}"", 'GoodForKids': 'True', 'BusinessAcceptsCreditCards': 'True'}",1
I5ueHDysyhKzHkE5Nw4Rew,Diamond Spa,4.0,8430 Germantown Ave,7.0,40.0755313,-75.2059033,"['Day Spas', ' Nail Salons', ' Beauty & Spas']","{'RestaurantsPriceRange2': '2', 'ByAppointmentOnly': 'False', 'BusinessAcceptsCreditCards': 'True', 'BusinessParking': ""{'garage': False, 'street': True, 'validated': True, 'lot': False, 'valet': False}"", 'BikeParking': 'True'}",1
qMlco2xbB0h9CTMQxazfuQ,XpresSpa,3.5,8000 Essington Ave,7.0,39.88064,-75.23834,"['Day Spas', ' Beauty & Spas', ' Massage', ' Nail Salons']","{'BikeParking': 'False', 'BusinessAcceptsCreditCards': 'True', 'ByAppointmentOnly': 'False', 'BusinessParking': ""{'garage': False, 'street': False, 'validated': False, 'lot': False, 'valet': False}"", 'AcceptsInsurance': 'False', 'RestaurantsPriceRange2': '2'}",1
QjPqXSqb9aiBPeRJ91mgnQ,Pure Bliss Wellness Center & Spa,3.5,1704 Walnut St,7.0,39.9498377,-75.1694777,"['Day Spas', ' Beauty & Spas']","{'BusinessAcceptsCreditCards': 'True', 'ByAppointmentOnly': 'True', 'BusinessParking': ""{'garage': False, 'street': True, 'validated': False, 'lot': False, 'valet': False}"", 'RestaurantsPriceRange2': '2'}",1
9U1Igcpe954LoWZRmNc-zg,Hand & Stone Massage And Facial Spa,3.0,"1100 S Columbus Blvd, Ste 24",7.0,39.932756,-75.144504,"['Day Spas', ' Beauty & Spas', ' Skin Care', ' Massage']","{'BusinessAcceptsCreditCards': 'True', 'WheelchairAccessible': 'True', 'ByAppointmentOnly': 'True', 'RestaurantsPriceRange2': '2', 'BusinessParking': ""{'garage': False, 'street': True, 'validated': False, 'lot': True, 'valet': False}"", 'AcceptsInsurance': 'False', 'BikeParking': 'True'}",1
ltG1MkouzwoBbxaxWpTrKw,Comfort Inn & Suites Newark - Wilmington,4.5,3 Concord Lane,1365.0,39.672846,-75.6796722,"['Hotels & Travel', ' Hotels', ' Event Planning & Services']","{'BusinessAcceptsCreditCards': 'True', 'RestaurantsPriceRange2': '2', 'WiFi': ""'free'""}",1
T4dc0i0zKmshboj4bTiVSg,Arizona Shuttle Service,2.5,,51.0,32.2540946,-110.8850949,"['Hotels & Travel', ' Transportation', ' Airport Shuttles']",None,1
LGASThK7vu2gBnAKWZrnWQ,Enterprise Rent-A-Car,2.5,5285 E 22nd St,51.0,32.2072978175,-110.8797841557,"['Hotels & Travel', ' Car Rental']",None,1
AViEkPTdQR1CV3Jix3Eqzg,Pima County Fairgrounds RV Park,3.5,11300 S. Houghton Rd,51.0,32.0459151069,-110.7829692063,"['Hotels & Travel', ' RV Parks']",None,1
4Zqjjb_nsqbfoBVHuvLYnA,Varsity Club - Tucson,4.0,3855 E Speedway Blvd,51.0,32.2366532,-110.9103814,"['Hotels & Travel', ' Hotels', ' Event Planning & Services']","{'BusinessAcceptsCreditCards': 'True', 'RestaurantsPriceRange2': '2', 'WiFi': ""u'free'""}",1
kKfwRhExL-lwLFWF3aw3nQ,Omni Tucson National Resort,3.0,2727 W Club Dr,51.0,32.3581969,-111.023356,"['Hotels & Travel', ' Restaurants', ' Beauty & Spas', ' Hotels', ' Event Planning & Services', ' Day Spas']","{'NoiseLevel': ""u'quiet'"", 'RestaurantsDelivery': 'False', 'Caters': 'False', 'RestaurantsPriceRange2': '3', 'BusinessParking': ""{'garage': True, 'street': False, 'validated': False, 'lot': True, 'valet': True}"", 'OutdoorSeating': 'True', 'ByAppointmentOnly': 'False', 'RestaurantsGoodForGroups': 'True', 'HasTV': 'True', 'RestaurantsReservations': 'True', 'BusinessAcceptsCreditCards': 'True', 'RestaurantsAttire': ""'casual'"", 'GoodForKids': 'True', 'WiFi': ""u'free'"", 'RestaurantsTakeOut': 'True', 'Ambience': ""{'romantic': False, 'intimate': False, 'touristy': False, 'hipster': False, 'divey': False, 'classy': False, 'trendy': False, 'upscale': True, 'casual': False}"", 'Alcohol': ""u'full_bar'""}",1
r9Z4qa7SZfMcl1fvmBfCfw,Hampton Inn & Suites Tucson Tech Park,4.5,9095 S Rita Rd,51.0,32.086856,-110.8030197288,"['Hotels & Travel', ' Hotels', ' Event Planning & Services']",None,1
UxuFEVuGHl2yM8gMXi0JDw,United Airlines,1.5,7250 S Tucson Blvd,51.0,32.1202544,-110.937308,"['Hotels & Travel', ' Transportation', ' Airlines']",None,1
_KcupJ16B-oFAkKbA9r0ng,The Super Inn,1.0,1031 E Benson Hwy,51.0,32.1810155809,-110.9552931629,"['Hotels & Travel', ' Hotels', ' Event Planning & Services']",{'BusinessAcceptsCreditCards': 'True'},1
qQ7FHvkGEMqoPKKXPk4gjA,La Quinta by Wyndham NW Tucson Marana,2.5,6020 West Hospitality Rd,51.0,32.3585874,-111.093308,"['Hotels & Travel', ' Hotels', ' Event Planning & Services']","{'RestaurantsPriceRange2': '2', 'BusinessAcceptsCreditCards': 'True', 'DogsAllowed': 'True', 'WiFi': ""u'free'""}",1
JWPaKrwH0vyDliVjIfi8jA,GLH Hotel,1.5,1365 West Grant Rd,51.0,32.249709,-110.9935476,"['Hotels', ' Hotels & Travel', ' Event Planning & Services']","{'RestaurantsPriceRange2': '2', 'BusinessAcceptsCreditCards': 'True', 'WiFi': ""u'free'""}",1
yZVm-kuSC6AgLc4FtT45cw,Ramada Tucson,2.5,777 W Cushing St,51.0,32.216185,-110.980657,"['Hotels', ' Hotels & Travel', ' Event Planning & Services']","{'BusinessAcceptsCreditCards': 'True', 'WiFi': ""u'free'"", 'RestaurantsPriceRange2': '2'}",1
RJ4N3z_mDZy25Ul-noGkCA,Robert Markley Salon,4.0,"2905 E Skyline, Ste 160, Paloma Village Ctr",51.0,32.324883,-110.929789,"['Day Spas', ' Hair Salons', ' Hair Removal', ' Waxing', ' Massage', ' Beauty & Spas']","{'BusinessParking': ""{'garage': False, 'street': False, 'validated': False, 'lot': False, 'valet': False}"", 'ByAppointmentOnly': 'True', 'RestaurantsPriceRange2': '2'}",1
rr4w9-qM0Ns4CecPwMVXkA,Robert Markley Salon Spa,4.5,"5350 E Broadway Blvd, Ste 160",51.0,32.2208805,-110.8779701,"['Day Spas', ' Massage', ' Beauty & Spas', ' Hair Salons', ' Skin Care']","{'ByAppointmentOnly': 'False', 'BusinessAcceptsCreditCards': 'True', 'BusinessParking': ""{'garage': False, 'street': False, 'validated': False, 'lot': True, 'valet': False}"", 'GoodForKids': 'False', 'RestaurantsPriceRange2': '2', 'BikeParking': 'True'}",1
gqFQzFJDFl1_8o9L8D3Phg,Courtyard Franklin Cool Springs,4.0,2001 Meridian Blvd.,5932.0,35.9506307027,-86.8082302809,"['Hotels & Travel', ' Hotels', ' Event Planning & Services']","{'RestaurantsPriceRange2': '3', 'BusinessAcceptsCreditCards': 'True', 'WiFi': ""u'free'"", 'Ambience': ""{'touristy': False, 'hipster': False, 'romantic': False, 'divey': False, 'intimate': False, 'trendy': False, 'upscale': False, 'classy': False, 'casual': False}"", 'GoodForMeal': ""{'dessert': False, 'latenight': False, 'lunch': False, 'dinner': False, 'brunch': False, 'breakfast': False}""}",1
07VrNqwlf2gWxPIWQlIu4w,Best Western Franklin Inn,3.0,1308 Murfreesboro Rd,5932.0,35.913882867,-86.8277536334,"['Hotels & Travel', ' Event Planning & Services', ' Hotels']","{'BusinessAcceptsCreditCards': 'True', 'RestaurantsPriceRange2': '2', 'WiFi': ""'free'""}",1
b9_JK9mLoIJlAw7zGOkcaQ,La Quinta by Wyndham Nashville Franklin,2.5,4207 Franklin Commons Ct,4873.0,35.9115091728,-86.8234614257,"['Hotels & Travel', ' Event Planning & Services', ' Hotels']","{'RestaurantsPriceRange2': '2', 'WiFi': ""'free'"", 'BusinessAcceptsCreditCards': 'True', 'DogsAllowed': 'True'}",1
VXEuw2lfr3MjsanKb0kTMQ,Magnolia House Bed & Breakfast,5.0,1317 Columbia Ave,4873.0,35.9139459,-86.8734097,"['Hotels & Travel', ' Bed & Breakfast', ' Event Planning & Services', ' Hotels']","{'BusinessAcceptsCreditCards': 'True', 'WiFi': ""u'free'"", 'RestaurantsPriceRange2': '2'}",1
nQRHfpFYUVLJdh14Rxz64Q,The Mane Event Salon Enhancement Day Spa,3.5,1914 Columbia Ave,4873.0,35.8989982605,-86.8762969971,"['Day Spas', ' Barbers', ' Hair Salons', ' Beauty & Spas', ' Nail Salons']","{'ByAppointmentOnly': 'False', 'RestaurantsPriceRange2': '2', 'BusinessAcceptsCreditCards': 'True', 'WiFi': ""u'free'"", 'BusinessParking': ""{'garage': False, 'street': False, 'validated': False, 'lot': True, 'valet': False}"", 'GoodForKids': 'True', 'BikeParking': 'True', 'WheelchairAccessible': 'True'}",1
-tszRAImNX4NC4GgUcRafA,White Glove Car Service,5.0,5948 Bayview Cir S,3232.0,27.7401665183,-82.719835,"['Hotels & Travel', ' Transportation', ' Limos', ' Town Car Service', ' Airport Shuttles']","{'WiFi': ""u'free'"", 'ByAppointmentOnly': 'True'}",1
Xn1NSVa3eKX-AhYh-vmrgQ,Sea Breeze Manor Inn,4.0,5701 Shore Blvd S,3232.0,27.7379812,-82.7105391,"['Bed & Breakfast', ' Hotels & Travel', ' Event Planning & Services', ' Hotels']","{'RestaurantsPriceRange2': '2', 'BusinessAcceptsCreditCards': 'True', 'WiFi': ""u'free'""}",1
7HOvGuRS87hCXTa0Eet2Xg,Best Western O'Fallon Hotel,2.0,116 Regency Park,487.0,38.59025,-89.9387673,"['Hotels & Travel', ' Event Planning & Services', ' Hotels']",None,1
MuUNz121lvj0XLLONpaWCw,Hilton Garden Inn St. Louis Shiloh/O’Fallon,3.0,360 Regency Park Dr,487.0,38.5810796,-89.9328413,"['Hotels & Travel', ' Event Planning & Services', ' Hotels', ' Venues & Event Spaces']","{'RestaurantsPriceRange2': '2', 'WiFi': ""u'free'"", 'BusinessAcceptsCreditCards': 'True'}",1
ps9O_0Y7OQe6iIKIHI09jQ,Quality Inn & Suites Arnold - St Louis,2.0,3610 West Outer Rd,6021.0,38.414563,-90.390584,"['Hotels & Travel', ' Hotels', ' Event Planning & Services']","{'RestaurantsPriceRange2': '2', 'WiFi': ""u'free'"", 'BusinessAcceptsCreditCards': 'True'}",1
FPkkdWJXBDGkcjYITZe9Gw,Pear Tree Inn St Louis Arnold,4.0,1201 Drury Ln,6021.0,38.4446217,-90.3776888,"['Hotels', ' Event Planning & Services', ' Hotels & Travel']","{'BusinessAcceptsCreditCards': 'True', 'WiFi': ""'free'"", 'RestaurantsPriceRange2': '2'}",1
AsdSkdYdPBfU-L4YMJLHRg,Towneplace Suites,3.5,6101 Center Grove Rd,5920.0,38.7878097,-89.978611,"['Hotels & Travel', ' Event Planning & Services', ' Hotels']",None,1
Yx47e-by4pyg66pzUcXkhg,Hertz Rent A Car,2.0,695 South State Road 135,14950.0,39.6062266,-86.1584669,"['Hotels & Travel', ' Car Rental']",None,1
LdOluplf9hsVUgB9LUpTrg,Enterprise Rent-A-Car,3.5,801 US Highway 31 S,14950.0,39.6031248346,-86.1057078391,"['Hotels & Travel', ' Car Rental']",None,1
eYK3WmiqyiNBtLQI1MTRhA,Comfort Inn & Suites of Brandywine Valley,2.5,1310 Wilmington Pike,2221.0,39.9048811,-75.567563,"['Hotels & Travel', ' Event Planning & Services', ' Hotels']","{'WiFi': ""u'free'"", 'BusinessAcceptsCreditCards': 'True', 'RestaurantsPriceRange2': '3'}",1
fe8MBZ8-cDt9AIGKDT81_w,West Chester Railroad Company,3.5,500 S Adams St,2221.0,39.9573873214,-75.5943866432,"['Hotels & Travel', ' Tours', ' Transportation', ' Trains']",None,1
8Q0S2ZzurnXE0Mm0Mo2ROg,Chimes Bed & Breakfast,5.0,1146 Constantinople St,48.0,29.9238641,-90.0972943,"['Hotels & Travel', ' Event Planning & Services', ' Hotels', ' Bed & Breakfast']","{'RestaurantsPriceRange2': '2', 'WiFi': ""u'free'""}",1
VBwj3sdthp9oauueefIonQ,New Orleans Native Tours,4.5,,48.0,29.9557212,-90.0647686,"['Hotels & Travel', ' Tours', ' Historical Tours', ' Bus Tours']","{'WiFi': ""u'no'""}",1
V92gwKxxoBkSjn0TkNXLSg,Tastebud Food Tours,4.5,2649 Desoto,48.0,29.977212,-90.0788956,"['Hotels & Travel', ' Food', ' Community Service/Non-Profit', ' Desserts', ' Tours', ' Local Services', ' Food Tours']","{'BusinessAcceptsCreditCards': 'True', 'BusinessParking': ""{'garage': False, 'street': False, 'validated': False, 'lot': False, 'valet': False}""}",1
tKiyZD8qGFz9LcN7cAbGbg,Marigny Manor House,5.0,2125 N Rampart St,48.0,29.9675772661,-90.0574115277,"['Hotels & Travel', ' Hotels', ' Bed & Breakfast', ' Event Planning & Services']","{'WiFi': ""u'free'"", 'RestaurantsPriceRange2': '2', 'BusinessAcceptsCreditCards': 'True'}",1
7Iv-6B0EH-yVo5o_VnykWw,The National WWII Museum,4.5,945 Magazine St,48.0,29.942709,-90.070398,"['Hotels & Travel', ' Arts & Entertainment', ' Tours', ' Public Services & Government', ' Landmarks & Historical Buildings', ' Museums']","{'ByAppointmentOnly': 'False', 'GoodForKids': 'True', 'DogsAllowed': 'False', 'RestaurantsAttire': ""u'casual'""}",1
X18_xiKHoK6fOuFyExGEcA,"Chateau Bourbon, A Wyndam Historic Hotel",3.0,800 Iberville St,48.0,29.954681,-90.0691769,"['Hotels & Travel', ' Event Planning & Services', ' Hotels']","{'BusinessAcceptsCreditCards': 'True', 'WiFi': ""u'paid'"", 'RestaurantsPriceRange2': '2'}",1
JMmmQUJF2vNxmwR6Df_axg,Enterprise Rent-A-Car,3.0,4001 S Carrollton Ave,48.0,29.968426286,-90.1077228785,"['Hotels & Travel', ' Car Rental']",None,1
7iCCdhc6vrg5ivVZOo4pEw,New Orleans Courtyard Hotel,2.5,1101 N Rampart St,48.0,29.9641677,-90.0658268,"['Hotels', ' Hotels & Travel', ' Event Planning & Services']","{'RestaurantsPriceRange2': '2', 'WiFi': ""u'free'"", 'BusinessAcceptsCreditCards': 'True'}",1
8NSzJSdgt1IMkTdA2Cf65g,Q&C Hotel,4.0,344 Camp St,48.0,29.949982,-90.0688921,"['Hotels', ' Hotels & Travel', ' Event Planning & Services']","{'WiFi': ""'free'"", 'BusinessAcceptsCreditCards': 'True', 'RestaurantsPriceRange2': '2'}",1
r6_wKaVLLnYT31oGnxFuHA,French Quarter Rv Resort,3.5,500 N Claiborne Ave,48.0,29.9618241,-90.0732715,"['Resorts', ' Hotels & Travel', ' RV Parks']",{'ByAppointmentOnly': 'True'},1
yDXxwGLYj58zoUvd-gFnug,New Orleans International Hostel,2.0,2249 Carondelet St,48.0,29.9344784,-90.08247,"['Hostels', ' Hotels & Travel']",None,1
OKDanEGQodLGhOfvrCnR3w,Stay Alfred at Factors Row,3.5,822 Perdido Street,48.0,29.9506805,-90.0720854,"['Vacation Rentals', ' Hotels & Travel']","{'WiFi': ""u'free'""}",1
OOish-KEWdmjEdqSYKOAeA,Camp Street Apartment by Stay Alfred,4.5,600 Canal St,48.0,29.9522861,-90.06856,"['Vacation Rentals', ' Hotels & Travel']",None,1
euqKc1svwwIdN-7k3o2i0g,SHINE Spa & Specialties,4.5,"421 N Carrollton Ave, Ste A-4",48.0,29.9772628,-90.0978532,"['Day Spas', ' Skin Care', ' Shopping', ' Cosmetics & Beauty Supply', ' Beauty & Spas', ' Massage']","{'BusinessAcceptsBitcoin': 'False', 'BusinessParking': ""{'garage': False, 'street': True, 'validated': False, 'lot': False, 'valet': False}"", 'RestaurantsPriceRange2': '2', 'BusinessAcceptsCreditCards': 'True', 'ByAppointmentOnly': 'True', 'WheelchairAccessible': 'True', 'BikeParking': 'True', 'AcceptsInsurance': 'False'}",1
ZZ7m7DrHkelr3fwb3p9Ccw,One 2 One Salon,4.5,8216 Oak St,48.0,29.9482239,-90.1312111,"['Day Spas', ' Hair Salons', ' Beauty & Spas']","{'GoodForKids': 'True', 'BikeParking': 'False', 'RestaurantsPriceRange2': '2', 'BusinessAcceptsCreditCards': 'True', 'ByAppointmentOnly': 'True', 'BusinessParking': ""{'garage': True, 'street': True, 'validated': False, 'lot': True, 'valet': False}""}",1
gd3SCUU5mokyBrmbZvqoHw,Inn of King of Prussia,1.5,550 W Dekalb Pike,1776.0,40.0904516,-75.3806123,"['Hotels & Travel', ' Hotels', ' Event Planning & Services']",None,1
grhrDnNaRZCoOX0RCaBNVQ,Extended Stay America - Philadelphia - King of Prussia,1.5,400 American Avenue,1776.0,40.0952403031,-75.4005727137,"['Hotels & Travel', ' Hotels', ' Event Planning & Services']","{'RestaurantsPriceRange2': '2', 'BusinessAcceptsCreditCards': 'True', 'WiFi': ""'free'""}",1
usMJgeFEO6Zk2WUJqbHGYg,Home2 Suites by Hilton King of Prussia Valley Forge,2.5,550 W Dekalb Pike,1776.0,40.0905016,-75.3806652,"['Hotels & Travel', ' Event Planning & Services', ' Hotels']","{'DogsAllowed': 'True', 'BusinessAcceptsCreditCards': 'True'}",1
zQee6DF458ap5YbtOkMOOQ,Comfort Inn Valley Forge National Park,2.0,550 W Dekalb Pike,1776.0,40.090431,-75.380545,"['Hotels', ' Hotels & Travel', ' Event Planning & Services']","{'RestaurantsPriceRange2': '2', 'WiFi': ""u'free'"", 'BusinessAcceptsCreditCards': 'True'}",1
HDQyEpOqoowQyQzMoP_Jjw,Sheraton Valley Forge Hotel,3.0,480 N Gulph Rd,1776.0,40.0896765,-75.4096165,"['Hotels', ' Hotels & Travel', ' Venues & Event Spaces', ' Event Planning & Services']","{'WiFi': ""u'paid'"", 'BusinessAcceptsCreditCards': 'True', 'RestaurantsPriceRange2': '2', 'BusinessAcceptsBitcoin': 'False', 'WheelchairAccessible': 'True', 'DogsAllowed': 'True'}",1
Y3dk0YiQ532UyyqhsJgwQA,Northtowne China Inn,3.0,46 E Germantown Pike,1207.0,40.1393001,-75.3097488,"['Hotels & Travel', ' Restaurants', ' Hotels', ' Event Planning & Services', ' Chinese']","{'RestaurantsGoodForGroups': 'True', 'RestaurantsPriceRange2': '2', 'RestaurantsDelivery': 'True', 'GoodForKids': 'True', 'Alcohol': ""u'full_bar'"", 'RestaurantsAttire': ""'casual'"", 'BusinessAcceptsCreditCards': 'True', 'RestaurantsReservations': 'True', 'RestaurantsTakeOut': 'True', 'OutdoorSeating': 'False', 'BusinessParking': ""{'garage': False, 'street': False, 'validated': False, 'lot': True, 'valet': False}""}",1
k1_Q2UQKdzEuDPX_BMdD7g,Norristown Transportation Center,2.0,93 Schuylkill Ave,1207.0,40.1125593,-75.3456053,"['Hotels & Travel', ' Public Transportation', ' Transportation']",None,1
Viw11iSp5cdohr0HADUMxw,Americas Best Value Inn Norristown Philadelphia,2.0,830 W Main St,1207.0,40.11921,-75.355758,"['Hotels & Travel', ' Event Planning & Services', ' Hotels']","{'RestaurantsPriceRange2': '1', 'BusinessAcceptsCreditCards': 'True', 'WiFi': ""u'free'""}",1
Tey07W95Mo9d_oxTVBWhww,Belles Nails,4.5,2030 W Main St,1207.0,40.1333222,-75.3799748,"['Day Spas', ' Nail Salons', ' Beauty & Spas']","{'ByAppointmentOnly': 'False', 'RestaurantsPriceRange2': '2', 'BusinessAcceptsCreditCards': 'True', 'BusinessParking': ""{'garage': False, 'street': False, 'validated': False, 'lot': False, 'valet': False}""}",1
TXIHq9b0fEHe5DPrw_oUSw,Hampton Inn & Suites St. Louis/Alton,3.0,1904 Homer M Adams Pkwy,21459.0,38.9189061586,-90.1626491547,"['Hotels & Travel', ' Hotels', ' Event Planning & Services']",{'BusinessAcceptsCreditCards': 'True'},1
npvwUouhrmYufGvfTWNzGw,Riverline Train,2.5,1-99 Ward Aly,5503.0,40.2195243835,-74.7588424683,"['Hotels & Travel', ' Travel Services']",None,1
KT_LfcxsS-xCjJmU5EvSug,Best Western Harpeth Inn,3.5,116 Luyben Hills Rd,8072.0,36.0856502602,-87.0996179151,"['Hotels & Travel', ' Event Planning & Services', ' Hotels']",None,1
h5MUi97s54tT5LAHIb5fUQ,Indianapolis KOA,3.5,5896 W 200 N,1837.0,39.8160627194,-85.9112768104,"['Hotels & Travel', ' Campgrounds', ' RV Parks']","{'WiFi': ""u'free'""}",1
P0WmtX3rqlXAWxj6Akq7rw,Hyatt House Nashville / Franklin - Cool Springs,4.5,3501 Mallory Ln,549.0,35.9389138,-86.8227401,"['Hotels & Travel', ' Event Planning & Services', ' Hotels']",{'RestaurantsPriceRange2': '2'},1
_Buy1b4MYdB83_gGnnLseQ,Hampton Inn & Suites Franklin,2.5,7141 South Springs Dr,549.0,35.9524284,-86.8135717,"['Hotels & Travel', ' Event Planning & Services', ' Hotels']","{'RestaurantsPriceRange2': '2', 'BusinessAcceptsCreditCards': 'True', 'WiFi': ""u'free'""}",1
sjo508CnCXpPLqY08QW0XA,Franklin Marriott Cool Springs,3.0,700 Cool Springs Blvd,549.0,35.9476368222,-86.806865346,"['Hotels & Travel', ' Hotels', ' Event Planning & Services']","{'RestaurantsPriceRange2': '2', 'WiFi': ""u'paid'"", 'BusinessAcceptsCreditCards': 'True', 'BusinessAcceptsBitcoin': 'False', 'DogsAllowed': 'False', 'ByAppointmentOnly': 'False'}",1
2yf8vIDgZJpEX5MeLoyqpQ,West Bank Marrero Cab,2.0,740 Milton St,11731.0,29.9206915,-90.0498291,"['Hotels & Travel', ' Airport Shuttles', ' Local Services', ' Couriers & Delivery Services', ' Transportation', ' Taxis']",{'BusinessAcceptsCreditCards': 'True'},1
r3If7d4wAvYIbltQft11Zw,Holiday Inn New Orleans West Bank Tower,3.5,275 Whitney Ave,11731.0,29.9243994,-90.0418054,"['Hotels', ' Event Planning & Services', ' Venues & Event Spaces', ' Hotels & Travel', ' Resorts']","{'RestaurantsPriceRange2': '2', 'WiFi': ""u'free'"", 'BusinessAcceptsCreditCards': 'True', 'ByAppointmentOnly': 'False'}",1
RP9YmgxcKEaD1voeUXpD1Q,Massage Wellness Spa,3.5,1820 Belle Chasse Hwy 10,11731.0,29.894186,-90.039587,"['Day Spas', ' Massage', ' Beauty & Spas']","{'BusinessAcceptsCreditCards': 'True', 'RestaurantsPriceRange2': '2', 'ByAppointmentOnly': 'False', 'BikeParking': 'True', 'WheelchairAccessible': 'True', 'BusinessParking': ""{'garage': False, 'street': False, 'validated': False, 'lot': False, 'valet': False}"", 'AcceptsInsurance': 'False'}",1
CFlcjA8C2v0jjiLOJFHi1w,"Americas Best Value Inn & Suites St. Louis, St. Charles Inn",1.5,1310 Bass Pro Drive,20233.0,38.7707272,-90.4964213,"['Hotels & Travel', ' Hotels', ' Event Planning & Services']","{'WiFi': ""'free'"", 'RestaurantsPriceRange2': '2', 'BusinessAcceptsCreditCards': 'True', 'WheelchairAccessible': 'True'}",1
dmo3bB3_vxasVCOYxsH2Ag,"Ramada Fairview Heights, Il",2.5,6900 North Illinois Street,2469.0,38.6010244,-89.9838409,"['Hotels & Travel', ' Event Planning & Services', ' Hotels']","{'WiFi': ""u'free'"", 'BusinessAcceptsCreditCards': 'True', 'RestaurantsPriceRange2': '2'}",1
V48itXiAyU_hqwotNVvIBw,Hampton Inn Nashville/Brentwood-I-65S,3.0,5630 Franklin Pike Cir,3706.0,36.0391661406,-86.784419,"['Hotels & Travel', ' Hotels', ' Event Planning & Services']","{'RestaurantsPriceRange2': '2', 'BusinessAcceptsCreditCards': 'True', 'WiFi': ""u'free'""}",1
S0m_9O8ejEKw0bMpkFyuTA,Baymont by Wyndham Nashville/Brentwood,3.5,111 Penn Warren Drive,3706.0,36.0355028,-86.8016934,"['Hotels & Travel', ' Hotels', ' Event Planning & Services']","{'BusinessAcceptsCreditCards': 'True', 'WiFi': ""'free'"", 'DogsAllowed': 'False', 'RestaurantsPriceRange2': '2'}",1
Gqt_GmThKFTtbqYLknnZQw,Extended Stay America Nashville - Brentwood,1.5,9025 Church Street East,3706.0,36.033098,-86.779282,"['Hotels & Travel', ' Event Planning & Services', ' Hotels']","{'BusinessAcceptsCreditCards': 'True', 'WiFi': ""'free'"", 'RestaurantsPriceRange2': '1'}",1
CU6W984E28nl0YB16mN08Q,Sleep Inn Nashville - Brentwood - Cool Springs,3.5,1611 Galleria Blvd,3706.0,35.970077,-86.809799,"['Hotels', ' Hotels & Travel', ' Active Life', ' Event Planning & Services', ' Golf']","{'GoodForKids': 'True', 'RestaurantsPriceRange2': '2', 'BusinessAcceptsCreditCards': 'True', 'WiFi': ""u'free'""}",1
M8SB5qY4Crij3gsfRCUD9A,SpringHill Suites by Marriott St. Louis Brentwood,4.0,1231 Strassner Drive,3706.0,38.6236885765,-90.3351683092,"['Hotels', ' Event Planning & Services', ' Hotels & Travel', ' Venues & Event Spaces']","{'RestaurantsPriceRange2': '2', 'BusinessAcceptsCreditCards': 'True', 'BusinessAcceptsBitcoin': 'False', 'WiFi': ""u'free'"", 'DogsAllowed': 'False', 'WheelchairAccessible': 'True'}",1
1c-qM06URos7EskpHBPPZQ,Holiday Inn Express & Suites Boise West - Meridian,4.5,2610 E Freeway Dr,6627.0,43.5957517,-116.3615503,"['Hotels & Travel', ' Venues & Event Spaces', ' Hotels', ' Event Planning & Services']","{'BusinessAcceptsCreditCards': 'True', 'RestaurantsPriceRange2': '2', 'WiFi': ""u'free'""}",1
hwDDy0E5s81DNLYUnMqitQ,Trenton-Mercer Airport,3.0,1100 Terminal Circle Dr,16488.0,40.277085,-74.817549,"['Hotels & Travel', ' Airports']","{'WiFi': ""u'free'"", 'ByAppointmentOnly': 'True'}",1
C5fyEjAJU9-kJtOD_XaJUw,Super 8 by Wyndham Plainfield/Indianapolis Arpt Area,2.5,"6015 Gateway Dr, State Route 267 and I-70",989.0,39.6726512,-86.3717902,"['Hotels & Travel', ' Event Planning & Services', ' Hotels']",None,1
jedIpexBYaF0p56Hc_Rlgg,Margaritaville Hotel,4.5,425 Rep John Lewis Way S,7642.0,36.1556376189,-86.7754790905,"['Hotels & Travel', ' Event Planning & Services', ' Hotels']","{'WiFi': ""u'free'"", 'BusinessAcceptsCreditCards': 'True'}",1
m3f3ypSf8mJY1Or4vbvm9g,OSHi Floral Design,4.0,215 6th Ave N,7642.0,36.163095,-86.7818211,"['Hotels & Travel', ' Restaurants', ' Flowers & Gifts', ' Shopping', ' Wedding Planning', ' Event Planning & Services', ' Florists']","{'BusinessAcceptsCreditCards': 'True', 'RestaurantsPriceRange2': '3', 'BikeParking': 'True', 'WheelchairAccessible': 'True', 'ByAppointmentOnly': 'False', 'BusinessAcceptsBitcoin': 'False', 'DogsAllowed': 'True', 'BusinessParking': ""{'garage': False, 'street': True, 'validated': False, 'lot': False, 'valet': False}"", 'RestaurantsDelivery': 'None', 'RestaurantsTakeOut': 'None'}",1
9NVh6D-EDORwOxQsEmVzqA,Microtel Inn & Suites by Wyndham Nashville,2.0,100 Coley Davis Court,7642.0,36.0811933,-86.9531174,"['Hotels', ' Event Planning & Services', ' Hotels & Travel']","{'RestaurantsPriceRange2': '2', 'BusinessAcceptsCreditCards': 'True', 'WiFi': ""u'free'""}",1
bdVdOSGtXAwCRNcKoUyEDA,Club Wyndham Nashville,2.5,2415 McGavock Pike,7642.0,36.219891677,-86.7046765665,"['Hotels', ' Vacation Rentals', ' Hotels & Travel', ' Resorts', ' Event Planning & Services']","{'WiFi': ""u'free'"", 'RestaurantsPriceRange2': '3', 'BusinessAcceptsCreditCards': 'True'}",1
UGCHPIdCyyz_4N_dZRNPSQ,Blue Waters Treasure Island,4.0,8105 W Gulf Blvd,4959.0,27.7450897,-82.7595757,"['Hotels & Travel', ' Vacation Rentals', ' Event Planning & Services', ' Hotels']","{'WiFi': ""u'free'""}",1
6ZxVQTqxmdBELWX5gsW0cw,Residence Inn by Marriott St. Petersburg Treasure Island,4.5,11908 Gulf Blvd,4959.0,27.775387,-82.777744,"['Hotels & Travel', ' Event Planning & Services', ' Hotels']","{'RestaurantsPriceRange2': '2', 'WiFi': ""u'free'"", 'BusinessAcceptsCreditCards': 'True'}",1
iSnPc_3IHqywTvi9IQqxew,Thunderbird Beach Resort,3.0,10700 Gulf Blvd,4959.0,27.7691846,-82.7697469,"['Hotels', ' Hotels & Travel', ' Event Planning & Services']","{'WiFi': ""u'free'"", 'RestaurantsPriceRange2': '2', 'BusinessAcceptsCreditCards': 'True'}",1
qtCFii3nI1cNtPSA77OPcQ,Arvilla Motel,3.5,11580 Gulf Blvd,4959.0,27.7739263,-82.7748042,"['Hotels', ' Event Planning & Services', ' Hotels & Travel']","{'WiFi': ""u'free'"", 'RestaurantsPriceRange2': '1', 'BusinessAcceptsCreditCards': 'True'}",1
ZhXatonwUwwz6FTuyaD6Rg,Sands of Treasure Island Apartment Motel,3.0,11800 Gulf Blvd,4959.0,27.775662,-82.776732,"['Hotels', ' Hotels & Travel', ' Event Planning & Services']","{'WiFi': ""u'free'"", 'RestaurantsPriceRange2': '1', 'BusinessAcceptsCreditCards': 'True'}",1
anHCZScwNdbBJo78XRsTDw,Avis Cool Springs-Embassy Suites,2.5,820 Crescent Centre Dr,14509.0,35.94458322,-86.8133904222,"['Hotels & Travel', ' Car Rental']",None,1
gZrsNIJlYudMBJJLr0B8dg,Baymont by Wyndham Franklin,3.0,4206 Franklin Common Court,14509.0,35.911564,-86.8223809,"['Hotels & Travel', ' Event Planning & Services', ' Hotels']","{'RestaurantsPriceRange2': '2', 'BusinessAcceptsCreditCards': 'True', 'WiFi': ""'free'""}",1
PJDwDZMplZGVTAe9skcXZQ,Divas & Dudes,4.5,"430 Cool Springs Blvd, Ste 110",14509.0,35.9453,-86.825287,"['Day Spas', ' Hair Salons', ' Beauty & Spas']","{'ByAppointmentOnly': 'False', 'BusinessAcceptsCreditCards': 'True', 'BusinessParking': ""{'garage': False, 'street': False, 'validated': False, 'lot': False, 'valet': False}"", 'BikeParking': 'False', 'GoodForKids': 'True', 'RestaurantsPriceRange2': '3'}",1
C6eZ7mh7LldL8GYn1IDNVw,Pinup Skin Spa,5.0,112 E Fowlkes St,14509.0,35.9178231,-86.8719551,"['Day Spas', ' Beauty & Spas', ' Hair Removal', ' Waxing', ' Spray Tanning', ' Tanning']","{'ByAppointmentOnly': 'True', 'RestaurantsPriceRange2': '2', 'WheelchairAccessible': 'True', 'BusinessAcceptsCreditCards': 'True', 'WiFi': ""u'free'"", 'BikeParking': 'True', 'BusinessParking': ""{'garage': False, 'street': False, 'validated': False, 'lot': True, 'valet': False}""}",1
HRK3VGuBu9XDr51Uv6y76w,Enterprise Rent-A-Car,2.5,615 Gallatin Pike N,8183.0,36.2691961121,-86.7110891193,"['Hotels & Travel', ' Car Rental']",None,1
79HDR_e5AVzfF68--pr2cg,Ramada New Hope,2.5,6426 Lower York Road,13710.0,40.3564046,-74.9840026,"['Hotels & Travel', ' Event Planning & Services', ' Hotels']","{'BusinessAcceptsCreditCards': 'True', 'WiFi': ""u'free'"", 'RestaurantsPriceRange2': '1'}",1
S_orkerzJxv_qXiu79N5Vw,Wedgwood Inn,4.5,111 W Bridge St,13710.0,40.3638376,-74.9567673,"['Hotels', ' Hotels & Travel', ' Event Planning & Services', ' Bed & Breakfast', ' Personal Assistants', ' Professional Services', ' Tours', ' Historical Tours']","{'BusinessAcceptsCreditCards': 'True', 'RestaurantsPriceRange2': '3', 'WiFi': ""u'free'""}",1
nnoADFNuHOdyp6nVP6HttA,The Inn at Bowman's Hill,5.0,518 Lurgan Rd,13710.0,40.3228227,-74.9398027,"['Bed & Breakfast', ' Hotels & Travel']","{'WiFi': ""u'free'""}",1
ZW4LHNY5kFNlmqFc6MFmeg,Enterprise Rent-A-Car,3.0,222 E Main Street Collegeville Shopping Ctr,5867.0,40.1851773482,-75.4509013472,"['Hotels & Travel', ' Car Rental']",None,1
rcJnKmhgSPb8BmK3d6AZYQ,Joy Nail & Spa,4.0,430 W Main St,5867.0,40.1981462,-75.4763914,"['Day Spas', ' Nail Salons', ' Beauty & Spas']","{'BusinessParking': ""{'garage': False, 'street': False, 'validated': False, 'lot': True, 'valet': False}"", 'RestaurantsPriceRange2': '2', 'ByAppointmentOnly': 'False', 'BusinessAcceptsCreditCards': 'True', 'BikeParking': 'False'}",1
7hXkbBb2r5BzDJ7Ng-gadw,Hertz Rent A Car,1.5,1950 Manhattan Blvd,1987.0,29.8854665458,-90.0548169762,"['Hotels & Travel', ' Car Rental']",None,1
6QFtoTqHw6I0vEZFKkWaKQ,Comfort Suites Harvey - New Orleans West,2.0,1611 Elton Court Rd,1987.0,29.878707,-90.049458,"['Hotels & Travel', ' Hotels', ' Event Planning & Services']","{'RestaurantsPriceRange2': '2', 'BusinessAcceptsCreditCards': 'True', 'WiFi': ""u'free'""}",1
ijU7hEUbD1Nq7KKbi4nyeQ,I Bike Santa Barbara Wine Country Tours,5.0,113 Harbor Way,214.0,34.4037623,-119.6942723,"['Hotels & Travel', ' Wine Tours', ' Bike tours', ' Mountain Biking', ' Bike Rentals', ' Wineries', ' Arts & Entertainment', ' Tours', ' Food', ' Fitness & Instruction', ' Active Life']","{'GoodForKids': 'True', 'BusinessAcceptsCreditCards': 'True'}",1
UjOq8dBVNv9weHrVDqm3kQ,Hotel Milo Santa Barbara,3.0,202 W Cabrillo Blvd,214.0,34.4104385376,-119.6920394897,"['Hotels', ' Event Planning & Services', ' Hotels & Travel']","{'RestaurantsPriceRange2': '3', 'BusinessAcceptsBitcoin': 'False', 'BusinessAcceptsCreditCards': 'True', 'WiFi': ""u'free'"", 'DogsAllowed': 'True'}",1
-jXAkQIdZWq6i1Wwv8z1UQ,Rose Garden Inn,1.5,3643 State St,214.0,34.4400491,-119.7419479,"['Hotels', ' Event Planning & Services', ' Hotels & Travel']","{'RestaurantsPriceRange2': '3', 'WiFi': ""'free'"", 'BusinessAcceptsCreditCards': 'True'}",1
oJz-ALy7BOHSTXfjY-1phg,SpringHill Suites by Marriott Philadelphia West Chester/Exton,2.5,730 E Eagleview Blvd,5212.0,40.0676751,-75.6760826,"['Hotels & Travel', ' Hotels', ' Event Planning & Services', ' Venues & Event Spaces']","{'BusinessAcceptsBitcoin': 'False', 'WheelchairAccessible': 'True', 'DogsAllowed': 'False', 'WiFi': ""u'free'"", 'BusinessAcceptsCreditCards': 'True'}",1
36dU0rj9eoWeInt1OmwYFQ,Wyndham Garden Exton Valley Forge,2.5,815 North Pottstown Pike,5212.0,40.056669,-75.649483,"['Hotels', ' Event Planning & Services', ' Hotels & Travel']","{'BusinessAcceptsCreditCards': 'True', 'RestaurantsPriceRange2': '2', 'WiFi': ""u'free'""}",1
gSqUw1akdGvY940tmX8O3A,Balance Hair Spa,3.5,826 N Pottstown Pike,5212.0,40.0554096,-75.6499597,"['Day Spas', ' Beauty & Spas', ' Hair Salons']","{'BusinessAcceptsCreditCards': 'True', 'RestaurantsPriceRange2': '3', 'GoodForKids': 'False', 'BikeParking': 'False', 'BusinessParking': ""{'garage': False, 'street': False, 'validated': False, 'lot': True, 'valet': False}"", 'ByAppointmentOnly': 'True'}",1
6AsDzVxUF59Wi3t137IPbg,Quality Inn & Suites Conference Center,2.0,5316 US 19 N,2501.0,28.236925,-82.726643,"['Hotels & Travel', ' Hotels', ' Event Planning & Services']","{'BusinessAcceptsCreditCards': 'True', 'RestaurantsPriceRange2': '2', 'WiFi': ""u'free'""}",1
fP9wE8HIRat6PO4CvV0JGQ,Enterprise Rent-A-Car,3.5,26615 Wesley Chapel Blvd,1778.0,28.1396,-82.4263,"['Hotels & Travel', ' Car Rental']",None,1
n_024s43f-usTmmzPn8vIQ,Enterprise Rent-A-Car,3.0,1927 Brinson Rd,1778.0,28.1858312,-82.4676888,"['Hotels & Travel', ' Car Rental']",None,1
QcKOGUK3y7xOv3XNFX9Ukw,Avis Rent A Car,2.0,594 Brandon Town Center Dr,379.0,27.9290643524,-82.3242680494,"['Hotels & Travel', ' Car Rental']",None,1
I9or-Qu47AbReJLS43TcBw,Tasty Venues,4.5,951 E Brandon Blvd,379.0,27.9371711,-82.2698738,"['Hotels & Travel', ' Food Tours', ' Cooking Classes', ' Arts & Crafts', ' Home & Garden', ' Restaurants', ' Cafes', ' Shopping', ' Home Decor', ' American (New)', ' Tours']","{'HasTV': 'False', 'RestaurantsTableService': 'True', 'RestaurantsReservations': 'True', 'RestaurantsPriceRange2': '2', 'Caters': 'True', 'WiFi': ""u'no'"", 'GoodForMeal': ""{'dessert': False, 'latenight': False, 'lunch': False, 'dinner': False, 'brunch': False, 'breakfast': False}"", 'OutdoorSeating': 'False', 'BusinessAcceptsBitcoin': 'False', 'BikeParking': 'False', 'RestaurantsDelivery': 'True', 'WheelchairAccessible': 'True', 'BusinessAcceptsCreditCards': 'True', 'BYOB': 'False', 'DogsAllowed': 'False', 'RestaurantsTakeOut': 'True', 'Corkage': 'True', 'HappyHour': 'True', 'Ambience': ""{'touristy': False, 'hipster': False, 'romantic': False, 'divey': False, 'intimate': False, 'trendy': False, 'upscale': False, 'classy': True, 'casual': False}"", 'Alcohol': ""u'beer_and_wine'"", 'BusinessParking': ""{'garage': False, 'street': False, 'validated': False, 'lot': True, 'valet': False}""}",1
Ym4lR5MHWpUJhsieITRqgA,Home2 Suites by Hilton Brandon Tampa,4.5,10323 Palm River Rd,379.0,27.938013,-82.3325994,"['Hotels & Travel', ' Event Planning & Services', ' Hotels']",{'BusinessAcceptsCreditCards': 'True'},1
U2N51NIJXW0tOYvBeE4sog,Tranquil Escape Skin and Nails,5.0,713 Lithia Pinecrest Rd,379.0,27.928036,-82.2741361,"['Day Spas', ' Hair Removal', ' Skin Care', ' Beauty & Spas']","{'BikeParking': 'True', 'BusinessParking': ""{'garage': False, 'street': False, 'validated': False, 'lot': True, 'valet': False}"", 'BusinessAcceptsCreditCards': 'True', 'ByAppointmentOnly': 'True', 'WheelchairAccessible': 'False', 'RestaurantsPriceRange2': '2'}",1
pG6457EJcmfAAb6LV9m1gg,Hand & Stone Massage and Facial Spa,3.5,"11009 Causeway Blvd, Ste 106",379.0,27.9224084875,-82.3281979,"['Day Spas', ' Skin Care', ' Massage', ' Beauty & Spas']","{'BusinessAcceptsCreditCards': 'True', 'ByAppointmentOnly': 'False', 'BusinessParking': ""{'garage': False, 'street': False, 'validated': False, 'lot': True, 'valet': False}"", 'RestaurantsPriceRange2': '2', 'WheelchairAccessible': 'True', 'BikeParking': 'True', 'AcceptsInsurance': 'False', 'WiFi': ""u'free'""}",1
yfFIKKSdl5_NXs6bpvCMbA,The Wishing Well Guesthouse,4.0,144 Old York Rd,8457.0,40.361472,-74.96682,"['Hotels & Travel', ' Guest Houses', ' Bed & Breakfast']","{'BusinessAcceptsCreditCards': 'True', 'WiFi': ""u'free'"", 'RestaurantsPriceRange2': '2'}",1
wVGeGxHHUMm4EgzAprLKAw,Holiday Inn Express & Suites Wilmington-Newark,4.0,1201 Christiana Rd,21327.0,39.6740245161,-75.679453722,"['Hotels & Travel', ' Venues & Event Spaces', ' Wedding Planning', ' Event Planning & Services', ' Hotels']","{'RestaurantsPriceRange2': '2', 'BusinessAcceptsCreditCards': 'True', 'WiFi': ""u'free'""}",1
wt6uzR-k0mv7Xe3sPRx3MA,Courtyard by Marriott Wilmington Newark/Christiana Mall,3.0,48 Geoffrey Dr,21327.0,39.6866492,-75.6531494,"['Hotels & Travel', ' Event Planning & Services', ' Hotels', ' Venues & Event Spaces']","{'RestaurantsPriceRange2': '2', 'BusinessAcceptsCreditCards': 'True', 'WiFi': ""u'free'"", 'BusinessAcceptsBitcoin': 'False', 'DogsAllowed': 'False', 'WheelchairAccessible': 'None'}",1
5MjB9464NZhyJGGwNeZuvA,Hampton Inn and Suites Clayton/St Louis-Galleria Area,3.5,216 N Meramec Ave,2426.0,38.6546364,-90.3388911,"['Hotels & Travel', ' Event Planning & Services', ' Hotels']","{'RestaurantsPriceRange2': '2', 'WiFi': ""u'free'"", 'BusinessAcceptsCreditCards': 'True'}",1
ayTrP-Gd9bZDTcgdD6WwFQ,Ramada by Wyndham Levittown Bucks County,2.0,6201 Bristol Pike,881.0,40.1221767,-74.8431131,"['Hotels & Travel', ' Event Planning & Services', ' Hotels']","{'BusinessAcceptsCreditCards': 'True', 'WiFi': ""u'free'"", 'RestaurantsPriceRange2': '2'}",1
lVv-IO-i6rDs2b5tlPC_hw,InTown Suites,1.5,665 Myatt Dr,2437.0,36.2934118,-86.6947792,"['Hotels & Travel', ' Hotels', ' Event Planning & Services']","{'RestaurantsPriceRange2': '1', 'BusinessAcceptsCreditCards': 'True', 'WiFi': ""u'free'""}",1
4KE2HDFLNffXQ7_DdVFhlg,Avis Rent A Car,4.0,151 N Dupont Hwy,2350.0,39.674928,-75.59788,"['Hotels & Travel', ' Car Rental']",None,1
aRgYwStLhy7ZZVFiKJF8Tw,Airport Direct,3.5,"4707 140th Ave N, Ste 207",371.0,27.899886,-82.697294,"['Hotels & Travel', ' Transportation', ' Airport Shuttles']",None,1
3WTB4ngzQ31QPJOcH21NCg,Residence Inn St. Petersburg Clearwater,3.5,5050 Ulmerton Rd,371.0,27.8930300885,-82.7015054226,"['Hotels & Travel', ' Event Planning & Services', ' Hotels']","{'WiFi': ""u'free'"", 'RestaurantsPriceRange2': '2', 'BusinessAcceptsCreditCards': 'True'}",1
NCV6RkYHqa1AwGVypLhobA,Jolley Trolley ,2.0,410 N Myrtle Ave,371.0,27.970426,-82.7961691,"['Hotels & Travel', ' Party & Event Planning', ' Event Planning & Services', ' Party Bus Rentals', ' Public Transportation', ' Transportation']",None,1
38kMOKCtqbzaRcAw3HKk7g,TownePlace Suites St. Petersburg Clearwater,3.0,13200 49th St N,371.0,27.8918387,-82.7011577,"['Hotels', ' Event Planning & Services', ' Hotels & Travel']","{'WiFi': ""'free'"", 'BusinessAcceptsCreditCards': 'True', 'RestaurantsPriceRange2': '2'}",1
VKwPAl11iuM_YkEwm07sYQ,Hibiscus Spa,4.5,400 Mandalay Ave,371.0,27.9788772,-82.8279609,"['Day Spas', ' Beauty & Spas', ' Hair Salons']","{'WiFi': ""u'free'"", 'ByAppointmentOnly': 'False', 'WheelchairAccessible': 'True', 'GoodForKids': 'False', 'BusinessAcceptsCreditCards': 'True', 'BusinessParking': ""{u'valet': False, u'garage': False, u'street': False, u'lot': True, u'validated': False}"", 'BikeParking': 'True'}",1
Ab7nP4TyfBw9JzXOHcm0WQ,Hilton Franklin Cool Springs,4.0,601 Corporate Centre Dr,13848.0,35.9480125,-86.8102673,"['Hotels & Travel', ' Hotels', ' Event Planning & Services', ' Venues & Event Spaces']","{'BusinessAcceptsCreditCards': 'True', 'DogsAllowed': 'False', 'BusinessAcceptsBitcoin': 'False', 'WiFi': ""u'paid'""}",1
IzPaKFuTapl94B6iMjz3sw,Hampton Inn & Suites Franklin Berry Farms,5.0,7101 Berry Farms Crossing,13848.0,35.8621657129,-86.8451737181,"['Hotels', ' Hotels & Travel', ' Event Planning & Services', ' Venues & Event Spaces']","{'RestaurantsPriceRange2': '2', 'WiFi': ""'free'"", 'BusinessAcceptsCreditCards': 'True'}",1
kbmiDjKovj2uB3LWnNSJhw,Candlewood Suites Avondale-New Orleans,3.0,3079 Highway 90 W,5878.0,29.9094224,-90.2076518,"['Hotels & Travel', ' Hotels', ' Venues & Event Spaces', ' Wedding Planning', ' Event Planning & Services']","{'BusinessAcceptsCreditCards': 'True', 'WiFi': ""u'free'"", 'RestaurantsPriceRange2': '3'}",1
hl0cZiAS3aEQGT4fzcISnA,Quality Inn,2.0,65 Geoffrey Drive,932.0,39.6864715769,-75.6522936356,"['Hotels & Travel', ' Hotels', ' Event Planning & Services']","{'BusinessAcceptsCreditCards': 'True', 'WiFi': ""u'free'"", 'RestaurantsPriceRange2': '2'}",1
Ohnd1G90NUdMtpooa_SXbQ,Avis Rent A Car,3.0,330 Mayfield Dr,5190.0,35.9544314,-86.8021158,"['Hotels & Travel', ' Car Rental']",None,1
ToTeuDR6SQkcwS4ppBq3tA,Home2 Suites by Hilton Nashville Franklin Cool Springs,3.5,107 International Dr,5190.0,35.9558412,-86.80557,"['Hotels', ' Hotels & Travel', ' Event Planning & Services']","{'BusinessAcceptsCreditCards': 'True', 'BusinessAcceptsBitcoin': 'False', 'WiFi': ""u'free'"", 'RestaurantsPriceRange2': '2', 'DogsAllowed': 'True'}",1
fei3avQ1kztdbpPDb3b7vQ,Alton's Best Cabs,2.0,1317 Milton Rd,572.0,38.8980261,-90.13555,"['Hotels & Travel', ' Transportation', ' Taxis']",None,1
CZkcQugEnx6ABMEf6xV0qg,Holiday Inn Express Hotel & Suites,4.0,10826 US Hwy 19,7752.0,28.3150866,-82.6984878,"['Hotels & Travel', ' Event Planning & Services', ' Hotels']","{'WiFi': ""u'free'"", 'RestaurantsPriceRange2': '2'}",1
1L295h7W__0Ofs3tIXjI-w,Holiday Inn Express & Suites Port Richey,3.0,10619 US 19,7752.0,28.3117006392,-82.7005095877,"['Hotels', ' Event Planning & Services', ' Hotels & Travel', ' Venues & Event Spaces']","{'RestaurantsPriceRange2': '2', 'BusinessAcceptsCreditCards': 'True', 'WiFi': ""'free'"", 'ByAppointmentOnly': 'False'}",1
y4svVMvwGBRqBcUsUhd4Ww,Enterprise Rent-A-Car,4.0,2401 W Main St,907.0,40.139169,-75.38498,"['Hotels & Travel', ' Car Rental']",None,1
C9CSfI4R5w2T9N4HJ9OCIg,Malvern Septa Train Station,3.5,61 N Warren St,7311.0,40.036735,-75.5156826,"['Hotels & Travel', ' Train Stations', ' Public Services & Government']",None,1
9FYoGKO-d6LEgQzs-gVawA,"Desmond Hotel Malvern, a DoubleTree by Hilton",3.0,1 Liberty Blvd,7311.0,40.0556379212,-75.5269138112,"['Hotels', ' Event Planning & Services', ' Hotels & Travel', ' Venues & Event Spaces', ' Restaurants']","{'BusinessAcceptsCreditCards': 'True', 'RestaurantsGoodForGroups': 'True', 'RestaurantsReservations': 'True', 'OutdoorSeating': 'True', 'Alcohol': ""u'full_bar'"", 'GoodForKids': 'False', 'BusinessParking': ""{'garage': False, 'street': False, 'validated': False, 'lot': True, 'valet': False}"", 'RestaurantsTakeOut': 'False', 'HasTV': 'True', 'Caters': 'True', 'RestaurantsDelivery': 'False', 'NoiseLevel': ""u'very_loud'"", 'RestaurantsAttire': ""'casual'"", 'RestaurantsPriceRange2': '2', 'Ambience': ""{'romantic': False, 'intimate': False, 'classy': False, 'hipster': False, 'divey': False, 'touristy': False, 'trendy': False, 'upscale': False, 'casual': False}"", 'WiFi': ""'free'"", 'BikeParking': 'True'}",1
OJG4aE2X7ozDIsiSG04FGg,Enterprise Rent-A-Car,3.0,10945 Lebanon Rd,1133.0,36.231356,-86.508644,"['Hotels & Travel', ' Car Rental']",None,1
FqAZGAmjnAlaNBEb98-1eA,Brentwood Suites,3.5,622 Church St E,985.0,36.0340529,-86.7791436,"['Hotels & Travel', ' Event Planning & Services', ' Hotels']","{'WiFi': ""u'free'"", 'BusinessAcceptsCreditCards': 'True', 'RestaurantsPriceRange2': '2'}",1
--FWWsIwxRwuw9vIMImcQg,Blue River Canyon Day Spa & Store,3.5,4908 Thoroughbred Ln,985.0,36.0367322,-86.7910447,"['Day Spas', ' Beauty & Spas']","{'RestaurantsPriceRange2': '3', 'ByAppointmentOnly': 'True', 'BusinessAcceptsCreditCards': 'True', 'BusinessParking': ""{'garage': False, 'street': False, 'validated': False, 'lot': False, 'valet': False}""}",1
KGkCY7_EWVuJ-86ZPL7UtA,Hand & Stone Massage and Facial Spa,3.0,"201 Franklin Rd, Ste 170",985.0,36.0332027,-86.7897969,"['Day Spas', ' Skin Care', ' Beauty & Spas', ' Massage']","{'BusinessParking': ""{'garage': False, 'street': False, 'validated': False, 'lot': True, 'valet': True}""}",1
Jckw_X7UbF0PUSaMipCeog,Sleep Inn & Suites,2.5,150 S Eastgate Court,6064.0,36.186038578,-86.4107370203,"['Hotels & Travel', ' Hotels', ' Event Planning & Services']","{'BusinessAcceptsCreditCards': 'True', 'WiFi': ""u'free'"", 'RestaurantsPriceRange2': '2', 'DogsAllowed': 'True'}",1
DgKpGDlX0U7T2XaKG9uvcQ,WoodSpring Suites Lebanon,1.0,205 North Eastgate Ct,580.0,36.1852989,-86.4116837,"['Hotels & Travel', ' Hotels', ' Event Planning & Services']","{'BusinessAcceptsBitcoin': 'False', 'DogsAllowed': 'True', 'WiFi': ""u'free'"", 'BusinessAcceptsCreditCards': 'True', 'RestaurantsPriceRange2': '4'}",1
KPjkXop27x5NHsol_85y_A,Red Roof Inn,1.5,32000 US Hwy 19 N,766.0,28.0626773,-82.7394484,"['Hotels & Travel', ' Hotels', ' Event Planning & Services']","{'WiFi': ""u'free'"", 'RestaurantsPriceRange2': '2', 'BusinessAcceptsCreditCards': 'True'}",1
eNDmwbkedbpxq5taws9AqA,Innisbrook Resort,3.0,36750 US Hwy 19 N,766.0,28.1106808856,-82.7545171964,"['Resorts', ' Hotels', ' Active Life', ' Hotels & Travel', ' Event Planning & Services', ' Beauty & Spas', ' Day Spas', ' Golf']","{'ByAppointmentOnly': 'True', 'RestaurantsPriceRange2': '3', 'BusinessAcceptsCreditCards': 'True', 'WiFi': ""u'free'"", 'BikeParking': 'True', 'GoodForKids': 'True', 'BusinessParking': ""{'garage': False, 'street': False, 'validated': False, 'lot': True, 'valet': False}"", 'DogsAllowed': 'True'}",1
bP8Y5cHMda64Z3tGA-cYzw,Glossy 130 Nails & Spa,4.0,35817 US Hwy 19 N,766.0,28.0980134,-82.739562,"['Day Spas', ' Skin Care', ' Beauty & Spas', ' Nail Salons']","{'RestaurantsPriceRange2': '2', 'BikeParking': 'True', 'BusinessParking': ""{'garage': False, 'street': False, 'validated': False, 'lot': True, 'valet': False}"", 'BusinessAcceptsCreditCards': 'True', 'ByAppointmentOnly': 'False'}",1
ssPN3I90vNKRV55yxS3fog,MassageLuXe,2.0,30569 US Hwy 19 N,766.0,28.0509658,-82.7359891,"['Day Spas', ' Beauty & Spas', ' Massage']","{'BusinessParking': ""{'garage': False, 'street': False, 'validated': False, 'lot': True, 'valet': False}""}",1
ufZQ3_SVnhF-MYxoklH2JQ,Arielle's Country Inn,4.0,740 Allentown Rd,6217.0,40.367281,-75.382751,"['Hotels & Travel', ' Hotels', ' Restaurants', ' Steakhouses', ' Event Planning & Services']","{'RestaurantsGoodForGroups': 'True', 'WiFi': ""u'no'"", 'Caters': 'True', 'RestaurantsDelivery': 'False', 'RestaurantsTakeOut': 'False', 'GoodForKids': 'False', 'HasTV': 'False', 'NoiseLevel': ""u'quiet'"", 'OutdoorSeating': 'True', 'BusinessAcceptsCreditCards': 'True', 'RestaurantsAttire': ""u'casual'"", 'RestaurantsReservations': 'True', 'RestaurantsPriceRange2': '3', 'Alcohol': ""u'full_bar'"", 'BusinessParking': ""{'garage': False, 'street': False, 'validated': False, 'lot': True, 'valet': False}"", 'BusinessAcceptsBitcoin': 'False', 'BikeParking': 'False', 'Ambience': ""{'touristy': False, 'hipster': False, 'romantic': True, 'divey': False, 'intimate': True, 'trendy': False, 'upscale': False, 'classy': True, 'casual': False}""}",1
xoRQ94Cgwjizxax0mVLJtQ,Holiday Inn Express Troy,3.0,2011 Formosa Rd,9683.0,38.7347825175,-89.9148165754,"['Hotels & Travel', ' Venues & Event Spaces', ' Event Planning & Services', ' Hotels']","{'BusinessAcceptsCreditCards': 'True', 'WiFi': ""'free'"", 'RestaurantsPriceRange2': '2'}",1
pR0-dgBSX1BOvnKSuufGWA,Enterprise Rent-A-Car,3.0,190 S Dupont Hwy,1913.0,39.6565945746,-75.6130749977,"['Hotels & Travel', ' Car Rental']",None,1
ZHS0Avo3KPXtCXsVAgSacg,Fairfield Inn & Suites Wilmington - New Castle,3.5,2117 N Dupont Hwy,1913.0,39.7013255273,-75.5722635,"['Hotels', ' Hotels & Travel', ' Event Planning & Services']","{'RestaurantsPriceRange2': '2', 'WiFi': ""'free'"", 'BusinessAcceptsCreditCards': 'True'}",1
gZsR1V2uhXlN_GIblnR8-w,Thrifty Car Rental,2.5,1675 Airline Dr,707.0,29.9804988,-90.2497409,"['Hotels & Travel', ' Car Rental', ' Automotive', ' Parking', ' Truck Rental']",None,1
9BVO07g5PruWhckWtTdL4w,Enterprise Rent-A-Car,4.5,284 Mallory Station Rd,1678.0,35.9558942178,-86.8272479475,"['Hotels & Travel', ' Car Rental']",None,1
wUFY5xl9gAQRtqWcc1UcTA,Hampton Inn & Suites St. Petersburg/Downtown,4.0,80 Beach Dr NE,18181.0,27.7717398328,-82.6336238533,"['Hotels', ' Event Planning & Services', ' Hotels & Travel', ' Venues & Event Spaces']","{'RestaurantsPriceRange2': '2', 'BusinessAcceptsCreditCards': 'True', 'WiFi': ""u'free'""}",1
7_UhyUmnFY_Y1gMJ1W4DdQ,The Inn On Third,4.5,342 3rd Ave N,18181.0,27.7747056,-82.6380889,"['Hotels', ' Event Planning & Services', ' Hotels & Travel']","{'RestaurantsPriceRange2': '2', 'WiFi': ""u'free'"", 'BusinessAcceptsCreditCards': 'True'}",1
bSEFFmnlHaoPY-FKRVmWxg,Hotel Isis,4.0,17566 Gulf Blvd,9525.0,27.8245286,-82.8289499,"['Hotels', ' Hotels & Travel', ' Event Planning & Services']","{'RestaurantsPriceRange2': '2', 'WiFi': ""u'free'"", 'BusinessAcceptsCreditCards': 'True'}",1
Jw-ENQw-OGGwpM3nA3ywqw,Best Western Plus Philadelphia Airport South,3.0,1450 Providence Ave,4459.0,39.8600105,-75.3603015,"['Hotels', ' Event Planning & Services', ' Hotels & Travel']","{'BusinessAcceptsCreditCards': 'True', 'WiFi': ""u'free'"", 'RestaurantsPriceRange2': '2'}",1
asOD84ExnJvTbxGvCvFogA,Hampton Inn & Suites Tampa Northwest/Oldsmar,3.5,4017 Tampa Rd,2707.0,28.0379187,-82.6573795528,"['Hotels', ' Hotels & Travel', ' Event Planning & Services']","{'RestaurantsPriceRange2': '2', 'BusinessAcceptsCreditCards': 'True', 'WiFi': ""u'free'""}",1
KgnUoaHcxeVlaFMxY_R80g,Comfort Inn & Suites,2.5,7120 S Springs Dr,20105.0,35.9532318115,-86.8162155151,"['Hotels', ' Hotels & Travel', ' Event Planning & Services']","{'RestaurantsPriceRange2': '2', 'WiFi': ""u'free'"", 'BusinessAcceptsCreditCards': 'True'}",1
pKUSoVcaGmhfF7ttpegctw,Hampton Inn St. Louis/Westport,3.5,2454 Old Dorsett Rd,1492.0,38.7165115,-90.4454874285,"['Hotels', ' Event Planning & Services', ' Hotels & Travel']","{'WiFi': ""u'free'"", 'RestaurantsPriceRange2': '2', 'BusinessAcceptsCreditCards': 'True'}",1
qUSqYsxEK4jObwlhdPFFUg,The Arbors Seaside Cottages,4.5,218 Gulf Blvd,6923.0,27.880015,-82.850498,"['Hotels', ' Event Planning & Services', ' Hotels & Travel', ' Vacation Rentals']","{'RestaurantsPriceRange2': '2', 'BusinessAcceptsCreditCards': 'True'}",1
RJiepHovHAZFZPMVSVsjpA,Holiday Inn Express & Suites Edwardsville,4.5,1000 Plummer Dr,1665.0,38.7905074,-89.9778898,"['Hotels', ' Event Planning & Services', ' Hotels & Travel', ' Venues & Event Spaces']","{'WiFi': ""'free'"", 'BusinessAcceptsCreditCards': 'True', 'RestaurantsPriceRange2': '2'}",1
QMsl94tHgV-eOBZcXU6ABA,Comfort Inn NJ State Capital Area,2.5,7 South Pennsylvania Avenue,15367.0,40.2066915,-74.7752016,"['Hotels', ' Event Planning & Services', ' Bed & Breakfast', ' Hotels & Travel']","{'RestaurantsPriceRange2': '2', 'WiFi': ""u'free'"", 'BusinessAcceptsCreditCards': 'True'}",1
gGyPa2upZ33_cZxryI1hZg,Residence Inn Reno Sparks,4.0,300 Legends Bay Dr,415.0,39.533397,-119.723918,"['Hotels', ' Hotels & Travel', ' Event Planning & Services']",None,1
83vhrbmdBvgUvdBedTEP7A,Americas Best Value,1.5,5768 Old Hickorty Blvd,2518.0,36.1722116,-86.5998643,"['Hotels', ' Hotels & Travel', ' Event Planning & Services']","{'BusinessAcceptsCreditCards': 'True', 'WiFi': ""'free'"", 'RestaurantsPriceRange2': '1'}",1
rdLe7EsFbLMD-oI6oT92Bw,Tulip Nails Hermitage,2.0,3873 Lebanon Pike,2518.0,36.1936340164,-86.622503006,"['Day Spas', ' Beauty & Spas', ' Nail Salons']","{'BikeParking': 'True', 'BusinessAcceptsBitcoin': 'False', 'ByAppointmentOnly': 'False', 'RestaurantsPriceRange2': '2', 'BusinessAcceptsCreditCards': 'True', 'WheelchairAccessible': 'True', 'BusinessParking': ""{'garage': False, 'street': False, 'validated': False, 'lot': True, 'valet': False}""}",1
ds-WKG5VrggQUaCG30eJ0w,Red Roof Inn New Orleans - Westbank,1.0,3750 Westbank Expy,2004.0,29.8958425204,-90.0876633653,"['Hotels', ' Event Planning & Services', ' Hotels & Travel']",{'BusinessAcceptsCreditCards': 'True'},1
Nhd13EAGVISQNN4cSeWRvw,Holiday Inn Fort Washington,2.0,432 W Pennsylvania Ave,5126.0,40.1346676,-75.2086223,"['Hotels', ' Hotels & Travel', ' Venues & Event Spaces', ' Event Planning & Services', ' Resorts']","{'BusinessParking': ""{'garage': False, 'street': False, 'validated': False, 'lot': True, 'valet': False}"", 'RestaurantsReservations': 'True', 'OutdoorSeating': 'False', 'BusinessAcceptsCreditCards': 'True', 'RestaurantsAttire': ""u'casual'"", 'Alcohol': ""'full_bar'"", 'NoiseLevel': ""u'average'"", 'RestaurantsDelivery': 'False', 'RestaurantsGoodForGroups': 'True', 'GoodForKids': 'True', 'WiFi': ""u'free'"", 'Ambience': ""{'romantic': False, 'intimate': False, 'touristy': False, 'hipster': False, 'divey': False, 'classy': False, 'trendy': False, 'upscale': False, 'casual': False}"", 'RestaurantsTakeOut': 'False', 'BikeParking': 'True', 'HasTV': 'True', 'Caters': 'False', 'RestaurantsPriceRange2': '2'}",1
n9fFd_afvogsu3kx7iWNeA,Fairfield Inn Wilmington,3.5,65 Geoffrey Dr,133.0,39.6865699,-75.6522705,"['Hotels', ' Event Planning & Services', ' Hotels & Travel']","{'WiFi': ""u'free'"", 'BusinessAcceptsCreditCards': 'True', 'RestaurantsPriceRange2': '2'}",1
3t9vMieL_L7Mkz5WDo7Suw,Hilton Garden Inn Nashville/Smyrna,3.0,2631 Highwood Blvd,864.0,35.9720824011,-86.5718434658,"['Hotels', ' Event Planning & Services', ' Hotels & Travel', ' Venues & Event Spaces']","{'BusinessAcceptsCreditCards': 'True', 'WiFi': ""u'free'"", 'RestaurantsPriceRange2': '2'}",1
TNPo-te7po7XRAbpkrx-Ww,"Homewood Suites by Hilton Doylestown, PA",4.0,2650 Kelly Rd,2533.0,40.2650898406,-75.1342856884,"['Hotels', ' Hotels & Travel', ' Event Planning & Services']","{'BusinessAcceptsCreditCards': 'True', 'WiFi': ""'free'"", 'RestaurantsPriceRange2': '2'}",1
101Wj9K1xRUTk0fNfM7QSA,Rice Creek Rv Adult Resort,4.5,10719 Rice Creek Dr,445.0,27.8450814,-82.3253922,"['Hotels', ' Event Planning & Services', ' Hotels & Travel']",None,1
CqQSzXFLH7lE2CKzUWH42g,Elite Spa & Nail,3.0,13170 US Hwy 301 S,445.0,27.7928906382,-82.3331682733,"['Day Spas', ' Waxing', ' Hair Removal', ' Nail Salons', ' Beauty & Spas']","{'BikeParking': 'False', 'BusinessParking': ""{'garage': False, 'street': False, 'validated': False, 'lot': False, 'valet': False}"", 'ByAppointmentOnly': 'False', 'BusinessAcceptsCreditCards': 'True', 'RestaurantsPriceRange2': '2', 'WiFi': ""u'free'"", 'WheelchairAccessible': 'True'}",1
ktxiQja3uQ5yi7CBr1nz1w,"Red Roof Inn St Louis - Troy, IL",3.5,2030 Formosa Rd,11173.0,38.7347897753,-89.9139,"['Hotels', ' Hotels & Travel', ' Event Planning & Services']","{'BusinessAcceptsCreditCards': 'True', 'WiFi': ""u'free'"", 'RestaurantsPriceRange2': '1'}",1
ug2sjYinbU_4N3zdjL0vvw,Courtyard by Marriott Philadelphia Willow Grove,2.5,2350 Easton Road Route 611,2841.0,40.165949,-75.126158,"['Hotels', ' Hotels & Travel', ' Event Planning & Services', ' Venues & Event Spaces']","{'RestaurantsPriceRange2': '2', 'WiFi': ""u'free'"", 'BusinessAcceptsCreditCards': 'True', 'WheelchairAccessible': 'True', 'DogsAllowed': 'False', 'BusinessAcceptsBitcoin': 'False'}",1
brXlrqQLsPPO0TK6SyY0SA,Homewood Suites by Hilton Wilmington-Brandywine Valley,4.0,350 Rocky Run Pkwy,653.0,39.8186232213,-75.551785,"['Hotels', ' Event Planning & Services', ' Hotels & Travel']","{'RestaurantsPriceRange2': '3', 'BusinessAcceptsCreditCards': 'True', 'WiFi': ""'free'""}",1
y4gdzJDdDIGxEsMJfZUsoQ,Super 8 by Wyndham HermitageNashville,2.0,1414 Princeton Place,14374.0,36.172741,-86.6035799,"['Hotels', ' Hotels & Travel', ' Event Planning & Services']","{'BusinessAcceptsCreditCards': 'True', 'RestaurantsPriceRange2': '1'}",1
woR_IVEe-L8GgEBgq-YxgA,Red Roof Inn Indianapolis - Greenwood,2.5,110 Sheek Rd,738.0,39.6129696238,-86.0761965883,"['Hotels', ' Event Planning & Services', ' Hotels & Travel']","{'WiFi': ""u'free'"", 'BusinessAcceptsCreditCards': 'True', 'RestaurantsPriceRange2': '1'}",1
06Fw40aGMI_sInznweYLow,Hilton Garden Inn Valley Forge/Oaks,3.5,500 Cresson Blvd,2240.0,40.1301725089,-75.4505982809,"['Hotels', ' Restaurants', ' Event Planning & Services', ' Venues & Event Spaces', ' Hotels & Travel', ' American (Traditional)']","{'BusinessAcceptsCreditCards': 'True', 'WiFi': ""'free'"", 'RestaurantsPriceRange2': '2'}",1
bjfYldiKaG1XxU2TBB86yw,Candlewood Suites Indianapolis - South,3.0,1190 N Graham Rd,5260.0,39.632266,-86.064428,"['Hotels', ' Party & Event Planning', ' Hotels & Travel', ' Event Planning & Services', ' Venues & Event Spaces']","{'RestaurantsPriceRange2': '2', 'WiFi': ""u'free'"", 'BusinessAcceptsCreditCards': 'True'}",1
viyqXip4sG-g83DE9sqKiQ,The Inn On Holly,4.5,120 W Holly Ave,4076.0,39.732757,-75.133786,"['Bed & Breakfast', ' Hotels & Travel']","{'WiFi': ""u'free'""}",1
wNUjZ7NcJYdR1Xxa20ymIA,The Brentwood A Bed & Breakfast,2.5,6304 Murray Ln,4302.0,36.0153894,-86.8387054,"['Bed & Breakfast', ' Event Planning & Services', ' Hotels & Travel', ' Hotels']","{'WiFi': ""u'free'"", 'RestaurantsPriceRange2': '2'}",1
2dPiEMXII3wF4uNCeWDEpg,Clayton Plaza Hotel,3.5,7750 Carondelet Ave,3385.0,38.648477,-90.3364872,"['Resorts', ' Event Planning & Services', ' Hotels', ' Venues & Event Spaces', ' Hotels & Travel']","{'RestaurantsPriceRange2': '2', 'BusinessAcceptsCreditCards': 'True', 'WiFi': ""u'free'""}",1
o3hDZ2nv80tApZMNQw2aZA,Ameristar Casino Resort Spa St. Charles,3.0,One Ameristar Blvd,661.0,38.766902,-90.485339,"['Resorts', ' Hotels', ' American (New)', ' Casinos', ' Event Planning & Services', ' Restaurants', ' Nightlife', ' Hotels & Travel', ' Arts & Entertainment']","{'RestaurantsGoodForGroups': 'True', 'RestaurantsAttire': ""'casual'"", 'RestaurantsPriceRange2': '2', 'BYOBCorkage': ""'no'"", 'BusinessAcceptsCreditCards': 'True', 'WiFi': ""u'free'"", 'RestaurantsReservations': 'False', 'HasTV': 'True', 'BikeParking': 'True', 'Caters': 'False', 'RestaurantsTakeOut': 'True', 'Alcohol': ""u'full_bar'"", 'GoodForKids': 'False', 'BusinessParking': ""{'garage': True, 'street': False, 'validated': False, 'lot': False, 'valet': True}"", 'OutdoorSeating': 'False', 'RestaurantsDelivery': 'False', 'HappyHour': 'True', 'BestNights': ""{'monday': True, 'tuesday': False, 'friday': True, 'wednesday': False, 'thursday': False, 'sunday': False, 'saturday': True}"", 'NoiseLevel': ""u'loud'"", 'Smoking': ""u'yes'"", 'Music': ""{'dj': False, 'background_music': False, 'no_music': False, 'jukebox': False, 'live': True, 'video': False, 'karaoke': False}"", 'Ambience': ""{'touristy': False, 'hipster': False, 'romantic': False, 'divey': False, 'intimate': False, 'trendy': False, 'upscale': False, 'classy': True, 'casual': True}"", 'CoatCheck': 'True', 'GoodForDancing': 'True'}",1
GrApaWj9j6zFQmBMZetWjA,Holiday Inn Lansdale - Hatfield,2.0,1750 Sumneytown Pike,4088.0,40.2450742,-75.3422085,"['Resorts', ' Hotels & Travel', ' Restaurants', ' Hotels', ' Event Planning & Services', ' Venues & Event Spaces']","{'WiFi': ""u'free'"", 'RestaurantsReservations': 'True', 'RestaurantsTakeOut': 'False', 'RestaurantsDelivery': 'False', 'Caters': 'False', 'Alcohol': ""u'full_bar'"", 'OutdoorSeating': 'False', 'BusinessParking': ""{'garage': False, 'street': False, 'validated': False, 'lot': True, 'valet': False}"", 'BusinessAcceptsCreditCards': 'True', 'NoiseLevel': ""u'very_loud'"", 'Ambience': ""{'romantic': False, 'intimate': False, 'touristy': False, 'hipster': False, 'divey': False, 'classy': False, 'trendy': False, 'upscale': False, 'casual': False}"", 'RestaurantsAttire': ""'casual'"", 'GoodForKids': 'True', 'RestaurantsGoodForGroups': 'True', 'RestaurantsPriceRange2': '2', 'HasTV': 'True'}",1
rUTvvOnHZPzXoD9JYqKD6A,Sand Dollar - Beach Resort Condominium,2.5,18500 Gulf Blvd,12184.0,27.8384684,-82.8382286,"['Vacation Rentals', ' Hotels & Travel']",None,1
RKinKfvubtajsSDN3w5eCw,Cambio Salon Spa,1.5,1010 W Baltimore Pike,5365.0,39.9145997,-75.4255111,"['Day Spas', ' Beauty & Spas', ' Hair Salons', ' Nail Salons']","{'GoodForKids': 'False', 'BusinessAcceptsCreditCards': 'True', 'BusinessParking': ""{'garage': False, 'street': False, 'validated': False, 'lot': True, 'valet': False}"", 'ByAppointmentOnly': 'False', 'RestaurantsPriceRange2': '2'}",1
AIBscAwUdk5G_8Cu7PwN7g,Styling Point Hair Salon,4.5,1 State Rd,5365.0,39.926332,-75.385259,"['Day Spas', ' Hair Salons', ' Skin Care', ' Beauty & Spas', ' Nail Salons']","{'RestaurantsPriceRange2': '2', 'ByAppointmentOnly': 'False', 'BusinessAcceptsCreditCards': 'True'}",1
AR40OdJOSE0owSiUCAbyUQ,Joseph Anthony Retreat Spa and Dry Bar,4.5,400 W Sproul Rd,4207.0,39.925639,-75.352959,"['Day Spas', ' Skin Care', ' Massage', ' Tanning', ' Spray Tanning', ' Beauty & Spas', ' Hair Salons', ' Blow Dry/Out Services']","{'BusinessParking': ""{'garage': False, 'street': False, 'validated': False, 'lot': True, 'valet': False}"", 'WiFi': ""u'free'"", 'GoodForKids': 'False', 'ByAppointmentOnly': 'True', 'WheelchairAccessible': 'True', 'NoiseLevel': ""u'quiet'"", 'BusinessAcceptsCreditCards': 'True', 'RestaurantsPriceRange2': '2', 'BikeParking': 'True'}",1
_Zj8KJhd46wXN9PT1KbX2A,Harmony Day Spa,3.0,"13801 Walsingham Rd, Ste C",542.0,27.8817798,-82.8300313,"['Day Spas', ' Massage', ' Skin Care', ' Beauty & Spas', ' Nail Salons']","{'BusinessParking': ""{'garage': False, 'street': False, 'validated': False, 'lot': False, 'valet': False}"", 'WheelchairAccessible': 'True', 'ByAppointmentOnly': 'True', 'BikeParking': 'True', 'RestaurantsPriceRange2': '3', 'BusinessAcceptsCreditCards': 'True'}",1
HyJcJS2OTMKBWEXknTR69Q,Whole Body Vibe Wellness Center,4.5,"593 E State St, Ste 104",1432.0,43.6944189,-116.3473972,"['Day Spas', ' Medical Spas', ' Medical Centers', ' Professional Services', ' Doctors', ' Naturopathic/Holistic', ' Massage Therapy', ' Nutritionists', ' Colonics', ' Juice Bars & Smoothies', ' Beauty & Spas', ' Food', ' Health & Medical', ' Weight Loss Centers']","{'BusinessParking': ""{'garage': False, 'street': True, 'validated': False, 'lot': True, 'valet': False}"", 'BusinessAcceptsBitcoin': 'False', 'BusinessAcceptsCreditCards': 'True', 'BikeParking': 'True', 'RestaurantsPriceRange2': '2', 'WiFi': ""u'free'"", 'ByAppointmentOnly': 'True', 'RestaurantsTakeOut': 'False', 'AcceptsInsurance': 'False', 'Caters': 'False'}",1
JY65fJhaQ_oJzOInGEZ7CA,Peace of Mind,4.5,"531 Main St, Ste B",2400.0,27.991463,-82.689896,"['Day Spas', ' Health & Medical', ' Skin Care', ' Reflexology', ' Beauty & Spas', ' Food']","{'BusinessAcceptsCreditCards': 'True', 'BusinessParking': ""{'garage': False, 'street': False, 'validated': False, 'lot': True, 'valet': False}"", 'ByAppointmentOnly': 'True', 'RestaurantsPriceRange2': '2', 'WiFi': ""u'no'"", 'BikeParking': 'True'}",1
QNFbGQaGKXb6owfMxVFVIw,Breathe Salon & Day Spa,4.0,703 W Main St,2229.0,40.246474,-75.29124,"['Day Spas', ' Hair Salons', ' Massage Therapy', ' Massage', ' Hair Removal', ' Health & Medical', ' Beauty & Spas', ' Skin Care', ' Waxing']","{'ByAppointmentOnly': 'False', 'GoodForKids': 'True', 'RestaurantsPriceRange2': '2', 'BusinessParking': ""{'garage': False, 'street': False, 'validated': False, 'lot': True, 'valet': False}"", 'BusinessAcceptsCreditCards': 'True', 'BikeParking': 'True', 'WheelchairAccessible': 'True', 'HairSpecializesIn': ""{'straightperms': False, 'coloring': True, 'extensions': False, 'africanamerican': True, 'curly': True, 'kids': False, 'perms': False, 'asian': False}"", 'WiFi': ""u'free'""}",1
4OaNbHH0sqqskQna-bVMaw,Unique Nails and Spa,4.0,178 N Pine St,10444.0,40.1775584,-74.9189362,"['Day Spas', ' Waxing', ' Beauty & Spas', ' Nail Salons', ' Hair Removal']","{'ByAppointmentOnly': 'False', 'WheelchairAccessible': 'True', 'BusinessAcceptsCreditCards': 'True', 'BusinessParking': ""{'garage': False, 'street': False, 'validated': False, 'lot': False, 'valet': False}"", 'RestaurantsPriceRange2': '2'}",1
N9rtuQfgsThEFCi3hfR88A,Hand & Stone Massage and Facial Spa,3.0,126 Onix Dr,5282.0,39.8620332594,-75.6876240747,"['Day Spas', ' Beauty & Spas', ' Massage', ' Skin Care']","{'RestaurantsPriceRange2': '2', 'BusinessAcceptsCreditCards': 'True', 'ByAppointmentOnly': 'True', 'BusinessParking': ""{'garage': False, 'street': False, 'validated': False, 'lot': True, 'valet': False}""}",1
1XXpmt0XJlZAf8POETfZfg,Arnica & Ivy Day Spa,4.5,800 Bethlehem Pke,6155.0,40.1126678,-75.2140621,"['Day Spas', ' Beauty & Spas', ' Massage']","{'RestaurantsPriceRange2': '2', 'BusinessParking': ""{'garage': False, 'street': False, 'validated': False, 'lot': False, 'valet': False}"", 'BusinessAcceptsCreditCards': 'True', 'ByAppointmentOnly': 'True'}",1
mheFuENlLHrnZwkSN2bgcQ,Amavi Salon,2.5,20 S White Horse Pike,5550.0,39.8435401,-75.0166189,"['Day Spas', ' Hair Extensions', ' Beauty & Spas', ' Eyelash Service', ' Eyebrow Services', ' Hair Salons', ' Hair Stylists']","{'GoodForKids': 'False', 'BusinessAcceptsCreditCards': 'True', 'BusinessParking': ""{'garage': False, 'street': False, 'validated': False, 'lot': True, 'valet': False}"", 'BikeParking': 'False', 'RestaurantsPriceRange2': '3', 'ByAppointmentOnly': 'False'}",1
VU_zWUJlWBuNavZXkWuPEg,Handled With Care,4.0,"145 Rockledge Ave, Ste 1 & 2",1528.0,40.084472,-75.0829701,"['Day Spas', ' Reiki', ' Reflexology', ' Massage Therapy', ' Massage', ' Health & Medical', ' Beauty & Spas']","{'BusinessAcceptsCreditCards': 'True', 'ByAppointmentOnly': 'True', 'RestaurantsPriceRange2': '2', 'WiFi': ""u'free'"", 'BikeParking': 'True', 'BusinessParking': ""{'garage': False, 'street': False, 'validated': False, 'lot': True, 'valet': False}""}",1
Cqc-00SDptc4tBw14AcFPw,Pure Eco-Wellness Salon & Spa,4.0,84 S Main St,8495.0,40.2405294,-74.836223,"['Day Spas', ' Hair Removal', ' Nail Salons', ' Skin Care', ' Massage', ' Beauty & Spas', ' Hair Salons']","{'BusinessAcceptsCreditCards': 'True', 'RestaurantsPriceRange2': '2', 'ByAppointmentOnly': 'False', 'BusinessParking': ""{'garage': False, 'street': True, 'validated': False, 'lot': True, 'valet': False}"", 'GoodForKids': 'True', 'BusinessAcceptsBitcoin': 'False', 'BikeParking': 'True', 'WheelchairAccessible': 'True', 'WiFi': ""u'no'""}",1
5jdM2p2zK91Cvw51Q7OmGQ,Massage Envy - Brentwood North,3.5,"330 Franklin Rd, Ste 120A",730.0,36.0257010539,-86.7918581706,"['Day Spas', ' Massage', ' Skin Care', ' Health & Medical', ' Beauty & Spas', ' Massage Therapy']","{'RestaurantsPriceRange2': '2', 'ByAppointmentOnly': 'True', 'BusinessAcceptsCreditCards': 'True'}",1
160mZprPfCyYoUZh_ggV9w,Eden Day Spa and Salon,3.5,378 W Main St,6738.0,40.1977864,-75.4742349,"['Day Spas', ' Hair Salons', ' Nail Salons', ' Skin Care', ' Beauty & Spas']","{'RestaurantsPriceRange2': '3', 'BikeParking': 'True', 'ByAppointmentOnly': 'False', 'BusinessAcceptsCreditCards': 'True', 'BusinessParking': ""{'garage': False, 'street': False, 'validated': False, 'lot': True, 'valet': False}"", 'GoodForKids': 'False', 'RestaurantsDelivery': 'False', 'RestaurantsTakeOut': 'True'}",1
